<?xml version="1.0" encoding="UTF-8"?>
<gpx version="1.1" creator="sample" xmlns="http://www.topografix.com/GPX/1/1">
<metadata><name>Col du Galibier depuis Valloire</name></metadata>
<wpt lat="45.1330" lon="6.4095"><name>Les Verneys</name></wpt>
<wpt lat="45.0930" lon="6.3990"><name>Plan Lachat</name></wpt>
<wpt lat="45.0645" lon="6.4076"><name>Col du Galibier 2642 m</name></wpt>
<trk><name>Col du Galibier depuis Valloire</name><trkseg>
<trkpt lat="45.164280" lon="6.428500"><ele>1430.0</ele><time>2025-07-14T08:30:00Z</time></trkpt>
<trkpt lat="45.164118" lon="6.428464"><ele>1431.7</ele><time>2025-07-14T08:30:14Z</time></trkpt>
<trkpt lat="45.163955" lon="6.428429"><ele>1433.5</ele><time>2025-07-14T08:30:28Z</time></trkpt>
<trkpt lat="45.163791" lon="6.428395"><ele>1435.2</ele><time>2025-07-14T08:30:42Z</time></trkpt>
<trkpt lat="45.163626" lon="6.428363"><ele>1436.9</ele><time>2025-07-14T08:30:56Z</time></trkpt>
<trkpt lat="45.163461" lon="6.428331"><ele>1438.6</ele><time>2025-07-14T08:31:10Z</time></trkpt>
<trkpt lat="45.163294" lon="6.428299"><ele>1440.4</ele><time>2025-07-14T08:31:24Z</time></trkpt>
<trkpt lat="45.163127" lon="6.428267"><ele>1442.1</ele><time>2025-07-14T08:31:38Z</time></trkpt>
<trkpt lat="45.162959" lon="6.428235"><ele>1443.8</ele><time>2025-07-14T08:31:52Z</time></trkpt>
<trkpt lat="45.162790" lon="6.428201"><ele>1445.5</ele><time>2025-07-14T08:32:06Z</time></trkpt>
<trkpt lat="45.162620" lon="6.428167"><ele>1447.2</ele><time>2025-07-14T08:32:20Z</time></trkpt>
<trkpt lat="45.162449" lon="6.428130"><ele>1449.0</ele><time>2025-07-14T08:32:34Z</time></trkpt>
<trkpt lat="45.162277" lon="6.428092"><ele>1450.7</ele><time>2025-07-14T08:32:48Z</time></trkpt>
<trkpt lat="45.162104" lon="6.428051"><ele>1452.4</ele><time>2025-07-14T08:33:02Z</time></trkpt>
<trkpt lat="45.161930" lon="6.428007"><ele>1454.1</ele><time>2025-07-14T08:33:16Z</time></trkpt>
<trkpt lat="45.161756" lon="6.427959"><ele>1455.8</ele><time>2025-07-14T08:33:30Z</time></trkpt>
<trkpt lat="45.161580" lon="6.427909"><ele>1457.4</ele><time>2025-07-14T08:33:44Z</time></trkpt>
<trkpt lat="45.161403" lon="6.427854"><ele>1459.1</ele><time>2025-07-14T08:33:58Z</time></trkpt>
<trkpt lat="45.161225" lon="6.427795"><ele>1460.8</ele><time>2025-07-14T08:34:12Z</time></trkpt>
<trkpt lat="45.161047" lon="6.427731"><ele>1462.5</ele><time>2025-07-14T08:34:26Z</time></trkpt>
<trkpt lat="45.160867" lon="6.427662"><ele>1464.1</ele><time>2025-07-14T08:34:40Z</time></trkpt>
<trkpt lat="45.160687" lon="6.427588"><ele>1465.8</ele><time>2025-07-14T08:34:54Z</time></trkpt>
<trkpt lat="45.160506" lon="6.427509"><ele>1467.4</ele><time>2025-07-14T08:35:08Z</time></trkpt>
<trkpt lat="45.160324" lon="6.427424"><ele>1469.1</ele><time>2025-07-14T08:35:22Z</time></trkpt>
<trkpt lat="45.160141" lon="6.427333"><ele>1470.7</ele><time>2025-07-14T08:35:36Z</time></trkpt>
<trkpt lat="45.159957" lon="6.427237"><ele>1472.3</ele><time>2025-07-14T08:35:50Z</time></trkpt>
<trkpt lat="45.159773" lon="6.427134"><ele>1474.0</ele><time>2025-07-14T08:36:04Z</time></trkpt>
<trkpt lat="45.159588" lon="6.427025"><ele>1475.6</ele><time>2025-07-14T08:36:18Z</time></trkpt>
<trkpt lat="45.159402" lon="6.426910"><ele>1477.2</ele><time>2025-07-14T08:36:32Z</time></trkpt>
<trkpt lat="45.159216" lon="6.426789"><ele>1478.8</ele><time>2025-07-14T08:36:46Z</time></trkpt>
<trkpt lat="45.159029" lon="6.426662"><ele>1480.4</ele><time>2025-07-14T08:37:00Z</time></trkpt>
<trkpt lat="45.158842" lon="6.426528"><ele>1481.9</ele><time>2025-07-14T08:37:14Z</time></trkpt>
<trkpt lat="45.158654" lon="6.426389"><ele>1483.5</ele><time>2025-07-14T08:37:28Z</time></trkpt>
<trkpt lat="45.158466" lon="6.426244"><ele>1485.1</ele><time>2025-07-14T08:37:42Z</time></trkpt>
<trkpt lat="45.158278" lon="6.426093"><ele>1486.6</ele><time>2025-07-14T08:37:56Z</time></trkpt>
<trkpt lat="45.158089" lon="6.425937"><ele>1488.1</ele><time>2025-07-14T08:38:10Z</time></trkpt>
<trkpt lat="45.157900" lon="6.425776"><ele>1489.7</ele><time>2025-07-14T08:38:24Z</time></trkpt>
<trkpt lat="45.157712" lon="6.425610"><ele>1491.2</ele><time>2025-07-14T08:38:38Z</time></trkpt>
<trkpt lat="45.157523" lon="6.425439"><ele>1492.7</ele><time>2025-07-14T08:38:52Z</time></trkpt>
<trkpt lat="45.157334" lon="6.425264"><ele>1494.2</ele><time>2025-07-14T08:39:06Z</time></trkpt>
<trkpt lat="45.157145" lon="6.425086"><ele>1495.7</ele><time>2025-07-14T08:39:20Z</time></trkpt>
<trkpt lat="45.156956" lon="6.424904"><ele>1497.2</ele><time>2025-07-14T08:39:34Z</time></trkpt>
<trkpt lat="45.156768" lon="6.424719"><ele>1498.6</ele><time>2025-07-14T08:39:48Z</time></trkpt>
<trkpt lat="45.156579" lon="6.424532"><ele>1500.1</ele><time>2025-07-14T08:40:02Z</time></trkpt>
<trkpt lat="45.156392" lon="6.424343"><ele>1501.6</ele><time>2025-07-14T08:40:16Z</time></trkpt>
<trkpt lat="45.156204" lon="6.424152"><ele>1503.0</ele><time>2025-07-14T08:40:30Z</time></trkpt>
<trkpt lat="45.156017" lon="6.423961"><ele>1504.4</ele><time>2025-07-14T08:40:44Z</time></trkpt>
<trkpt lat="45.155831" lon="6.423769"><ele>1505.8</ele><time>2025-07-14T08:40:58Z</time></trkpt>
<trkpt lat="45.155645" lon="6.423578"><ele>1507.3</ele><time>2025-07-14T08:41:12Z</time></trkpt>
<trkpt lat="45.155460" lon="6.423387"><ele>1508.6</ele><time>2025-07-14T08:41:26Z</time></trkpt>
<trkpt lat="45.155276" lon="6.423198"><ele>1510.0</ele><time>2025-07-14T08:41:40Z</time></trkpt>
<trkpt lat="45.155093" lon="6.423010"><ele>1511.4</ele><time>2025-07-14T08:41:54Z</time></trkpt>
<trkpt lat="45.154911" lon="6.422825"><ele>1512.8</ele><time>2025-07-14T08:42:08Z</time></trkpt>
<trkpt lat="45.154729" lon="6.422643"><ele>1514.1</ele><time>2025-07-14T08:42:22Z</time></trkpt>
<trkpt lat="45.154549" lon="6.422464"><ele>1515.5</ele><time>2025-07-14T08:42:36Z</time></trkpt>
<trkpt lat="45.154369" lon="6.422289"><ele>1516.8</ele><time>2025-07-14T08:42:50Z</time></trkpt>
<trkpt lat="45.154191" lon="6.422119"><ele>1518.2</ele><time>2025-07-14T08:43:04Z</time></trkpt>
<trkpt lat="45.154014" lon="6.421954"><ele>1519.5</ele><time>2025-07-14T08:43:18Z</time></trkpt>
<trkpt lat="45.153838" lon="6.421794"><ele>1520.8</ele><time>2025-07-14T08:43:32Z</time></trkpt>
<trkpt lat="45.153663" lon="6.421640"><ele>1522.1</ele><time>2025-07-14T08:43:46Z</time></trkpt>
<trkpt lat="45.153490" lon="6.421492"><ele>1523.4</ele><time>2025-07-14T08:44:00Z</time></trkpt>
<trkpt lat="45.153317" lon="6.421351"><ele>1524.7</ele><time>2025-07-14T08:44:14Z</time></trkpt>
<trkpt lat="45.153147" lon="6.421217"><ele>1526.0</ele><time>2025-07-14T08:44:28Z</time></trkpt>
<trkpt lat="45.152977" lon="6.421090"><ele>1527.2</ele><time>2025-07-14T08:44:42Z</time></trkpt>
<trkpt lat="45.152809" lon="6.420970"><ele>1528.5</ele><time>2025-07-14T08:44:56Z</time></trkpt>
<trkpt lat="45.152642" lon="6.420858"><ele>1529.7</ele><time>2025-07-14T08:45:10Z</time></trkpt>
<trkpt lat="45.152477" lon="6.420754"><ele>1531.0</ele><time>2025-07-14T08:45:24Z</time></trkpt>
<trkpt lat="45.152313" lon="6.420657"><ele>1532.2</ele><time>2025-07-14T08:45:38Z</time></trkpt>
<trkpt lat="45.152151" lon="6.420569"><ele>1533.5</ele><time>2025-07-14T08:45:52Z</time></trkpt>
<trkpt lat="45.151990" lon="6.420489"><ele>1534.7</ele><time>2025-07-14T08:46:06Z</time></trkpt>
<trkpt lat="45.151830" lon="6.420416"><ele>1535.9</ele><time>2025-07-14T08:46:20Z</time></trkpt>
<trkpt lat="45.151672" lon="6.420352"><ele>1537.1</ele><time>2025-07-14T08:46:34Z</time></trkpt>
<trkpt lat="45.151515" lon="6.420295"><ele>1538.3</ele><time>2025-07-14T08:46:48Z</time></trkpt>
<trkpt lat="45.151359" lon="6.420246"><ele>1539.5</ele><time>2025-07-14T08:47:02Z</time></trkpt>
<trkpt lat="45.151205" lon="6.420205"><ele>1540.7</ele><time>2025-07-14T08:47:16Z</time></trkpt>
<trkpt lat="45.151052" lon="6.420170"><ele>1541.9</ele><time>2025-07-14T08:47:30Z</time></trkpt>
<trkpt lat="45.150901" lon="6.420143"><ele>1543.1</ele><time>2025-07-14T08:47:44Z</time></trkpt>
<trkpt lat="45.150750" lon="6.420122"><ele>1544.3</ele><time>2025-07-14T08:47:58Z</time></trkpt>
<trkpt lat="45.150601" lon="6.420107"><ele>1545.5</ele><time>2025-07-14T08:48:12Z</time></trkpt>
<trkpt lat="45.150453" lon="6.420098"><ele>1546.6</ele><time>2025-07-14T08:48:26Z</time></trkpt>
<trkpt lat="45.150306" lon="6.420095"><ele>1547.8</ele><time>2025-07-14T08:48:40Z</time></trkpt>
<trkpt lat="45.150160" lon="6.420096"><ele>1549.0</ele><time>2025-07-14T08:48:54Z</time></trkpt>
<trkpt lat="45.150015" lon="6.420101"><ele>1550.1</ele><time>2025-07-14T08:49:08Z</time></trkpt>
<trkpt lat="45.149871" lon="6.420110"><ele>1551.3</ele><time>2025-07-14T08:49:22Z</time></trkpt>
<trkpt lat="45.149727" lon="6.420123"><ele>1552.5</ele><time>2025-07-14T08:49:36Z</time></trkpt>
<trkpt lat="45.149585" lon="6.420138"><ele>1553.6</ele><time>2025-07-14T08:49:50Z</time></trkpt>
<trkpt lat="45.149443" lon="6.420155"><ele>1554.8</ele><time>2025-07-14T08:50:04Z</time></trkpt>
<trkpt lat="45.149302" lon="6.420174"><ele>1555.9</ele><time>2025-07-14T08:50:18Z</time></trkpt>
<trkpt lat="45.149162" lon="6.420193"><ele>1557.1</ele><time>2025-07-14T08:50:32Z</time></trkpt>
<trkpt lat="45.149022" lon="6.420212"><ele>1558.3</ele><time>2025-07-14T08:50:46Z</time></trkpt>
<trkpt lat="45.148882" lon="6.420232"><ele>1559.4</ele><time>2025-07-14T08:51:00Z</time></trkpt>
<trkpt lat="45.148732" lon="6.420227"><ele>1560.7</ele><time>2025-07-14T08:51:14Z</time></trkpt>
<trkpt lat="45.148582" lon="6.420221"><ele>1562.0</ele><time>2025-07-14T08:51:28Z</time></trkpt>
<trkpt lat="45.148432" lon="6.420213"><ele>1563.2</ele><time>2025-07-14T08:51:42Z</time></trkpt>
<trkpt lat="45.148282" lon="6.420202"><ele>1564.5</ele><time>2025-07-14T08:51:56Z</time></trkpt>
<trkpt lat="45.148132" lon="6.420187"><ele>1565.8</ele><time>2025-07-14T08:52:10Z</time></trkpt>
<trkpt lat="45.147982" lon="6.420169"><ele>1567.1</ele><time>2025-07-14T08:52:24Z</time></trkpt>
<trkpt lat="45.147832" lon="6.420145"><ele>1568.4</ele><time>2025-07-14T08:52:38Z</time></trkpt>
<trkpt lat="45.147682" lon="6.420117"><ele>1569.6</ele><time>2025-07-14T08:52:52Z</time></trkpt>
<trkpt lat="45.147532" lon="6.420083"><ele>1570.9</ele><time>2025-07-14T08:53:06Z</time></trkpt>
<trkpt lat="45.147381" lon="6.420043"><ele>1572.2</ele><time>2025-07-14T08:53:20Z</time></trkpt>
<trkpt lat="45.147229" lon="6.419996"><ele>1573.5</ele><time>2025-07-14T08:53:34Z</time></trkpt>
<trkpt lat="45.147077" lon="6.419943"><ele>1574.8</ele><time>2025-07-14T08:53:48Z</time></trkpt>
<trkpt lat="45.146925" lon="6.419882"><ele>1576.1</ele><time>2025-07-14T08:54:02Z</time></trkpt>
<trkpt lat="45.146772" lon="6.419814"><ele>1577.4</ele><time>2025-07-14T08:54:16Z</time></trkpt>
<trkpt lat="45.146618" lon="6.419739"><ele>1578.8</ele><time>2025-07-14T08:54:30Z</time></trkpt>
<trkpt lat="45.146463" lon="6.419655"><ele>1580.1</ele><time>2025-07-14T08:54:44Z</time></trkpt>
<trkpt lat="45.146307" lon="6.419564"><ele>1581.4</ele><time>2025-07-14T08:54:58Z</time></trkpt>
<trkpt lat="45.146151" lon="6.419464"><ele>1582.8</ele><time>2025-07-14T08:55:12Z</time></trkpt>
<trkpt lat="45.145993" lon="6.419356"><ele>1584.1</ele><time>2025-07-14T08:55:26Z</time></trkpt>
<trkpt lat="45.145835" lon="6.419239"><ele>1585.4</ele><time>2025-07-14T08:55:40Z</time></trkpt>
<trkpt lat="45.145675" lon="6.419115"><ele>1586.8</ele><time>2025-07-14T08:55:54Z</time></trkpt>
<trkpt lat="45.145514" lon="6.418982"><ele>1588.2</ele><time>2025-07-14T08:56:08Z</time></trkpt>
<trkpt lat="45.145352" lon="6.418841"><ele>1589.5</ele><time>2025-07-14T08:56:22Z</time></trkpt>
<trkpt lat="45.145188" lon="6.418693"><ele>1590.9</ele><time>2025-07-14T08:56:36Z</time></trkpt>
<trkpt lat="45.145024" lon="6.418536"><ele>1592.3</ele><time>2025-07-14T08:56:50Z</time></trkpt>
<trkpt lat="45.144858" lon="6.418373"><ele>1593.7</ele><time>2025-07-14T08:57:04Z</time></trkpt>
<trkpt lat="45.144690" lon="6.418202"><ele>1595.1</ele><time>2025-07-14T08:57:18Z</time></trkpt>
<trkpt lat="45.144522" lon="6.418024"><ele>1596.5</ele><time>2025-07-14T08:57:32Z</time></trkpt>
<trkpt lat="45.144351" lon="6.417841"><ele>1598.0</ele><time>2025-07-14T08:57:46Z</time></trkpt>
<trkpt lat="45.144180" lon="6.417651"><ele>1599.4</ele><time>2025-07-14T08:58:00Z</time></trkpt>
<trkpt lat="45.144007" lon="6.417456"><ele>1600.8</ele><time>2025-07-14T08:58:14Z</time></trkpt>
<trkpt lat="45.143833" lon="6.417255"><ele>1602.3</ele><time>2025-07-14T08:58:28Z</time></trkpt>
<trkpt lat="45.143657" lon="6.417051"><ele>1603.7</ele><time>2025-07-14T08:58:42Z</time></trkpt>
<trkpt lat="45.143480" lon="6.416842"><ele>1605.2</ele><time>2025-07-14T08:58:56Z</time></trkpt>
<trkpt lat="45.143302" lon="6.416629"><ele>1606.7</ele><time>2025-07-14T08:59:10Z</time></trkpt>
<trkpt lat="45.143122" lon="6.416414"><ele>1608.2</ele><time>2025-07-14T08:59:24Z</time></trkpt>
<trkpt lat="45.142940" lon="6.416197"><ele>1609.7</ele><time>2025-07-14T08:59:38Z</time></trkpt>
<trkpt lat="45.142758" lon="6.415977"><ele>1611.2</ele><time>2025-07-14T08:59:52Z</time></trkpt>
<trkpt lat="45.142574" lon="6.415757"><ele>1612.7</ele><time>2025-07-14T09:00:06Z</time></trkpt>
<trkpt lat="45.142389" lon="6.415536"><ele>1614.2</ele><time>2025-07-14T09:00:20Z</time></trkpt>
<trkpt lat="45.142202" lon="6.415315"><ele>1615.8</ele><time>2025-07-14T09:00:34Z</time></trkpt>
<trkpt lat="45.142015" lon="6.415095"><ele>1617.3</ele><time>2025-07-14T09:00:48Z</time></trkpt>
<trkpt lat="45.141826" lon="6.414875"><ele>1618.9</ele><time>2025-07-14T09:01:02Z</time></trkpt>
<trkpt lat="45.141636" lon="6.414658"><ele>1620.5</ele><time>2025-07-14T09:01:16Z</time></trkpt>
<trkpt lat="45.141445" lon="6.414442"><ele>1622.0</ele><time>2025-07-14T09:01:30Z</time></trkpt>
<trkpt lat="45.141252" lon="6.414230"><ele>1623.6</ele><time>2025-07-14T09:01:44Z</time></trkpt>
<trkpt lat="45.141059" lon="6.414020"><ele>1625.2</ele><time>2025-07-14T09:01:58Z</time></trkpt>
<trkpt lat="45.140865" lon="6.413815"><ele>1626.9</ele><time>2025-07-14T09:02:12Z</time></trkpt>
<trkpt lat="45.140671" lon="6.413613"><ele>1628.5</ele><time>2025-07-14T09:02:26Z</time></trkpt>
<trkpt lat="45.140475" lon="6.413417"><ele>1630.1</ele><time>2025-07-14T09:02:40Z</time></trkpt>
<trkpt lat="45.140278" lon="6.413225"><ele>1631.7</ele><time>2025-07-14T09:02:54Z</time></trkpt>
<trkpt lat="45.140081" lon="6.413039"><ele>1633.4</ele><time>2025-07-14T09:03:08Z</time></trkpt>
<trkpt lat="45.139884" lon="6.412858"><ele>1635.1</ele><time>2025-07-14T09:03:22Z</time></trkpt>
<trkpt lat="45.139685" lon="6.412683"><ele>1636.7</ele><time>2025-07-14T09:03:36Z</time></trkpt>
<trkpt lat="45.139487" lon="6.412515"><ele>1638.4</ele><time>2025-07-14T09:03:50Z</time></trkpt>
<trkpt lat="45.139288" lon="6.412353"><ele>1640.1</ele><time>2025-07-14T09:04:04Z</time></trkpt>
<trkpt lat="45.139088" lon="6.412197"><ele>1641.8</ele><time>2025-07-14T09:04:18Z</time></trkpt>
<trkpt lat="45.138888" lon="6.412049"><ele>1643.5</ele><time>2025-07-14T09:04:32Z</time></trkpt>
<trkpt lat="45.138689" lon="6.411907"><ele>1645.2</ele><time>2025-07-14T09:04:46Z</time></trkpt>
<trkpt lat="45.138488" lon="6.411771"><ele>1646.9</ele><time>2025-07-14T09:05:00Z</time></trkpt>
<trkpt lat="45.138288" lon="6.411643"><ele>1648.7</ele><time>2025-07-14T09:05:14Z</time></trkpt>
<trkpt lat="45.138088" lon="6.411522"><ele>1650.4</ele><time>2025-07-14T09:05:28Z</time></trkpt>
<trkpt lat="45.137888" lon="6.411407"><ele>1652.2</ele><time>2025-07-14T09:05:42Z</time></trkpt>
<trkpt lat="45.137689" lon="6.411298"><ele>1653.9</ele><time>2025-07-14T09:05:56Z</time></trkpt>
<trkpt lat="45.137489" lon="6.411196"><ele>1655.7</ele><time>2025-07-14T09:06:10Z</time></trkpt>
<trkpt lat="45.137290" lon="6.411101"><ele>1657.4</ele><time>2025-07-14T09:06:24Z</time></trkpt>
<trkpt lat="45.137091" lon="6.411011"><ele>1659.2</ele><time>2025-07-14T09:06:38Z</time></trkpt>
<trkpt lat="45.136892" lon="6.410927"><ele>1661.0</ele><time>2025-07-14T09:06:52Z</time></trkpt>
<trkpt lat="45.136694" lon="6.410849"><ele>1662.8</ele><time>2025-07-14T09:07:06Z</time></trkpt>
<trkpt lat="45.136496" lon="6.410775"><ele>1664.6</ele><time>2025-07-14T09:07:20Z</time></trkpt>
<trkpt lat="45.136299" lon="6.410706"><ele>1666.4</ele><time>2025-07-14T09:07:34Z</time></trkpt>
<trkpt lat="45.136103" lon="6.410642"><ele>1668.2</ele><time>2025-07-14T09:07:48Z</time></trkpt>
<trkpt lat="45.135907" lon="6.410582"><ele>1670.0</ele><time>2025-07-14T09:08:02Z</time></trkpt>
<trkpt lat="45.135712" lon="6.410525"><ele>1671.8</ele><time>2025-07-14T09:08:16Z</time></trkpt>
<trkpt lat="45.135517" lon="6.410472"><ele>1673.6</ele><time>2025-07-14T09:08:30Z</time></trkpt>
<trkpt lat="45.135324" lon="6.410422"><ele>1675.4</ele><time>2025-07-14T09:08:44Z</time></trkpt>
<trkpt lat="45.135131" lon="6.410373"><ele>1677.3</ele><time>2025-07-14T09:08:58Z</time></trkpt>
<trkpt lat="45.134939" lon="6.410327"><ele>1679.1</ele><time>2025-07-14T09:09:12Z</time></trkpt>
<trkpt lat="45.134748" lon="6.410282"><ele>1680.9</ele><time>2025-07-14T09:09:26Z</time></trkpt>
<trkpt lat="45.134558" lon="6.410238"><ele>1682.8</ele><time>2025-07-14T09:09:40Z</time></trkpt>
<trkpt lat="45.134369" lon="6.410195"><ele>1684.6</ele><time>2025-07-14T09:09:54Z</time></trkpt>
<trkpt lat="45.134181" lon="6.410152"><ele>1686.4</ele><time>2025-07-14T09:10:08Z</time></trkpt>
<trkpt lat="45.133993" lon="6.410108"><ele>1688.3</ele><time>2025-07-14T09:10:22Z</time></trkpt>
<trkpt lat="45.133807" lon="6.410064"><ele>1690.1</ele><time>2025-07-14T09:10:36Z</time></trkpt>
<trkpt lat="45.133621" lon="6.410018"><ele>1692.0</ele><time>2025-07-14T09:10:50Z</time></trkpt>
<trkpt lat="45.133437" lon="6.409972"><ele>1693.8</ele><time>2025-07-14T09:11:04Z</time></trkpt>
<trkpt lat="45.133254" lon="6.409923"><ele>1695.6</ele><time>2025-07-14T09:11:18Z</time></trkpt>
<trkpt lat="45.133071" lon="6.409872"><ele>1697.5</ele><time>2025-07-14T09:11:32Z</time></trkpt>
<trkpt lat="45.132890" lon="6.409818"><ele>1699.3</ele><time>2025-07-14T09:11:46Z</time></trkpt>
<trkpt lat="45.132709" lon="6.409762"><ele>1701.2</ele><time>2025-07-14T09:12:00Z</time></trkpt>
<trkpt lat="45.132540" lon="6.409780"><ele>1702.8</ele><time>2025-07-14T09:12:14Z</time></trkpt>
<trkpt lat="45.132373" lon="6.409795"><ele>1704.4</ele><time>2025-07-14T09:12:28Z</time></trkpt>
<trkpt lat="45.132206" lon="6.409806"><ele>1706.0</ele><time>2025-07-14T09:12:42Z</time></trkpt>
<trkpt lat="45.132040" lon="6.409813"><ele>1707.6</ele><time>2025-07-14T09:12:56Z</time></trkpt>
<trkpt lat="45.131875" lon="6.409816"><ele>1709.2</ele><time>2025-07-14T09:13:10Z</time></trkpt>
<trkpt lat="45.131711" lon="6.409816"><ele>1710.8</ele><time>2025-07-14T09:13:24Z</time></trkpt>
<trkpt lat="45.131547" lon="6.409811"><ele>1712.4</ele><time>2025-07-14T09:13:38Z</time></trkpt>
<trkpt lat="45.131384" lon="6.409801"><ele>1714.0</ele><time>2025-07-14T09:13:52Z</time></trkpt>
<trkpt lat="45.131222" lon="6.409788"><ele>1715.6</ele><time>2025-07-14T09:14:06Z</time></trkpt>
<trkpt lat="45.131061" lon="6.409770"><ele>1717.2</ele><time>2025-07-14T09:14:20Z</time></trkpt>
<trkpt lat="45.130900" lon="6.409747"><ele>1718.8</ele><time>2025-07-14T09:14:34Z</time></trkpt>
<trkpt lat="45.130740" lon="6.409720"><ele>1720.3</ele><time>2025-07-14T09:14:48Z</time></trkpt>
<trkpt lat="45.130581" lon="6.409689"><ele>1721.9</ele><time>2025-07-14T09:15:02Z</time></trkpt>
<trkpt lat="45.130422" lon="6.409654"><ele>1723.5</ele><time>2025-07-14T09:15:16Z</time></trkpt>
<trkpt lat="45.130263" lon="6.409615"><ele>1725.0</ele><time>2025-07-14T09:15:30Z</time></trkpt>
<trkpt lat="45.130105" lon="6.409571"><ele>1726.6</ele><time>2025-07-14T09:15:44Z</time></trkpt>
<trkpt lat="45.129948" lon="6.409524"><ele>1728.1</ele><time>2025-07-14T09:15:58Z</time></trkpt>
<trkpt lat="45.129790" lon="6.409474"><ele>1729.7</ele><time>2025-07-14T09:16:12Z</time></trkpt>
<trkpt lat="45.129633" lon="6.409420"><ele>1731.2</ele><time>2025-07-14T09:16:26Z</time></trkpt>
<trkpt lat="45.129476" lon="6.409363"><ele>1732.7</ele><time>2025-07-14T09:16:40Z</time></trkpt>
<trkpt lat="45.129320" lon="6.409303"><ele>1734.2</ele><time>2025-07-14T09:16:54Z</time></trkpt>
<trkpt lat="45.129164" lon="6.409240"><ele>1735.8</ele><time>2025-07-14T09:17:08Z</time></trkpt>
<trkpt lat="45.129007" lon="6.409174"><ele>1737.3</ele><time>2025-07-14T09:17:22Z</time></trkpt>
<trkpt lat="45.128851" lon="6.409107"><ele>1738.7</ele><time>2025-07-14T09:17:36Z</time></trkpt>
<trkpt lat="45.128695" lon="6.409038"><ele>1740.2</ele><time>2025-07-14T09:17:50Z</time></trkpt>
<trkpt lat="45.128539" lon="6.408966"><ele>1741.7</ele><time>2025-07-14T09:18:04Z</time></trkpt>
<trkpt lat="45.128383" lon="6.408894"><ele>1743.2</ele><time>2025-07-14T09:18:18Z</time></trkpt>
<trkpt lat="45.128226" lon="6.408820"><ele>1744.6</ele><time>2025-07-14T09:18:32Z</time></trkpt>
<trkpt lat="45.128070" lon="6.408746"><ele>1746.1</ele><time>2025-07-14T09:18:46Z</time></trkpt>
<trkpt lat="45.127914" lon="6.408671"><ele>1747.5</ele><time>2025-07-14T09:19:00Z</time></trkpt>
<trkpt lat="45.127757" lon="6.408596"><ele>1748.9</ele><time>2025-07-14T09:19:14Z</time></trkpt>
<trkpt lat="45.127600" lon="6.408520"><ele>1750.3</ele><time>2025-07-14T09:19:28Z</time></trkpt>
<trkpt lat="45.127443" lon="6.408445"><ele>1751.8</ele><time>2025-07-14T09:19:42Z</time></trkpt>
<trkpt lat="45.127285" lon="6.408370"><ele>1753.2</ele><time>2025-07-14T09:19:56Z</time></trkpt>
<trkpt lat="45.127128" lon="6.408296"><ele>1754.5</ele><time>2025-07-14T09:20:10Z</time></trkpt>
<trkpt lat="45.126970" lon="6.408223"><ele>1755.9</ele><time>2025-07-14T09:20:24Z</time></trkpt>
<trkpt lat="45.126811" lon="6.408151"><ele>1757.3</ele><time>2025-07-14T09:20:38Z</time></trkpt>
<trkpt lat="45.126653" lon="6.408080"><ele>1758.6</ele><time>2025-07-14T09:20:52Z</time></trkpt>
<trkpt lat="45.126493" lon="6.408010"><ele>1760.0</ele><time>2025-07-14T09:21:06Z</time></trkpt>
<trkpt lat="45.126334" lon="6.407942"><ele>1761.3</ele><time>2025-07-14T09:21:20Z</time></trkpt>
<trkpt lat="45.126174" lon="6.407875"><ele>1762.7</ele><time>2025-07-14T09:21:34Z</time></trkpt>
<trkpt lat="45.126014" lon="6.407811"><ele>1764.0</ele><time>2025-07-14T09:21:48Z</time></trkpt>
<trkpt lat="45.125853" lon="6.407748"><ele>1765.3</ele><time>2025-07-14T09:22:02Z</time></trkpt>
<trkpt lat="45.125692" lon="6.407687"><ele>1766.6</ele><time>2025-07-14T09:22:16Z</time></trkpt>
<trkpt lat="45.125530" lon="6.407628"><ele>1767.9</ele><time>2025-07-14T09:22:30Z</time></trkpt>
<trkpt lat="45.125368" lon="6.407571"><ele>1769.1</ele><time>2025-07-14T09:22:44Z</time></trkpt>
<trkpt lat="45.125206" lon="6.407516"><ele>1770.4</ele><time>2025-07-14T09:22:58Z</time></trkpt>
<trkpt lat="45.125043" lon="6.407464"><ele>1771.7</ele><time>2025-07-14T09:23:12Z</time></trkpt>
<trkpt lat="45.124879" lon="6.407413"><ele>1772.9</ele><time>2025-07-14T09:23:26Z</time></trkpt>
<trkpt lat="45.124716" lon="6.407364"><ele>1774.2</ele><time>2025-07-14T09:23:40Z</time></trkpt>
<trkpt lat="45.124552" lon="6.407318"><ele>1775.4</ele><time>2025-07-14T09:23:54Z</time></trkpt>
<trkpt lat="45.124387" lon="6.407273"><ele>1776.6</ele><time>2025-07-14T09:24:08Z</time></trkpt>
<trkpt lat="45.124222" lon="6.407230"><ele>1777.8</ele><time>2025-07-14T09:24:22Z</time></trkpt>
<trkpt lat="45.124057" lon="6.407189"><ele>1779.0</ele><time>2025-07-14T09:24:36Z</time></trkpt>
<trkpt lat="45.123891" lon="6.407150"><ele>1780.2</ele><time>2025-07-14T09:24:50Z</time></trkpt>
<trkpt lat="45.123725" lon="6.407112"><ele>1781.4</ele><time>2025-07-14T09:25:04Z</time></trkpt>
<trkpt lat="45.123558" lon="6.407075"><ele>1782.6</ele><time>2025-07-14T09:25:18Z</time></trkpt>
<trkpt lat="45.123392" lon="6.407040"><ele>1783.7</ele><time>2025-07-14T09:25:32Z</time></trkpt>
<trkpt lat="45.123225" lon="6.407007"><ele>1784.9</ele><time>2025-07-14T09:25:46Z</time></trkpt>
<trkpt lat="45.123057" lon="6.406974"><ele>1786.0</ele><time>2025-07-14T09:26:00Z</time></trkpt>
<trkpt lat="45.122890" lon="6.406942"><ele>1787.2</ele><time>2025-07-14T09:26:14Z</time></trkpt>
<trkpt lat="45.122722" lon="6.406911"><ele>1788.3</ele><time>2025-07-14T09:26:28Z</time></trkpt>
<trkpt lat="45.122554" lon="6.406881"><ele>1789.4</ele><time>2025-07-14T09:26:42Z</time></trkpt>
<trkpt lat="45.122386" lon="6.406852"><ele>1790.6</ele><time>2025-07-14T09:26:56Z</time></trkpt>
<trkpt lat="45.122218" lon="6.406823"><ele>1791.7</ele><time>2025-07-14T09:27:10Z</time></trkpt>
<trkpt lat="45.122049" lon="6.406794"><ele>1792.8</ele><time>2025-07-14T09:27:24Z</time></trkpt>
<trkpt lat="45.121880" lon="6.406766"><ele>1793.9</ele><time>2025-07-14T09:27:38Z</time></trkpt>
<trkpt lat="45.121712" lon="6.406737"><ele>1795.0</ele><time>2025-07-14T09:27:52Z</time></trkpt>
<trkpt lat="45.121543" lon="6.406709"><ele>1796.1</ele><time>2025-07-14T09:28:06Z</time></trkpt>
<trkpt lat="45.121374" lon="6.406680"><ele>1797.1</ele><time>2025-07-14T09:28:20Z</time></trkpt>
<trkpt lat="45.121205" lon="6.406652"><ele>1798.2</ele><time>2025-07-14T09:28:34Z</time></trkpt>
<trkpt lat="45.121036" lon="6.406623"><ele>1799.3</ele><time>2025-07-14T09:28:48Z</time></trkpt>
<trkpt lat="45.120867" lon="6.406594"><ele>1800.4</ele><time>2025-07-14T09:29:02Z</time></trkpt>
<trkpt lat="45.120698" lon="6.406564"><ele>1801.4</ele><time>2025-07-14T09:29:16Z</time></trkpt>
<trkpt lat="45.120529" lon="6.406533"><ele>1802.5</ele><time>2025-07-14T09:29:30Z</time></trkpt>
<trkpt lat="45.120360" lon="6.406503"><ele>1803.6</ele><time>2025-07-14T09:29:44Z</time></trkpt>
<trkpt lat="45.120191" lon="6.406471"><ele>1804.6</ele><time>2025-07-14T09:29:58Z</time></trkpt>
<trkpt lat="45.120022" lon="6.406439"><ele>1805.7</ele><time>2025-07-14T09:30:12Z</time></trkpt>
<trkpt lat="45.119853" lon="6.406407"><ele>1806.7</ele><time>2025-07-14T09:30:26Z</time></trkpt>
<trkpt lat="45.119685" lon="6.406373"><ele>1807.8</ele><time>2025-07-14T09:30:40Z</time></trkpt>
<trkpt lat="45.119516" lon="6.406339"><ele>1808.8</ele><time>2025-07-14T09:30:54Z</time></trkpt>
<trkpt lat="45.119348" lon="6.406305"><ele>1809.9</ele><time>2025-07-14T09:31:08Z</time></trkpt>
<trkpt lat="45.119179" lon="6.406269"><ele>1810.9</ele><time>2025-07-14T09:31:22Z</time></trkpt>
<trkpt lat="45.119011" lon="6.406234"><ele>1812.0</ele><time>2025-07-14T09:31:36Z</time></trkpt>
<trkpt lat="45.118843" lon="6.406197"><ele>1813.0</ele><time>2025-07-14T09:31:50Z</time></trkpt>
<trkpt lat="45.118675" lon="6.406160"><ele>1814.1</ele><time>2025-07-14T09:32:04Z</time></trkpt>
<trkpt lat="45.118507" lon="6.406123"><ele>1815.1</ele><time>2025-07-14T09:32:18Z</time></trkpt>
<trkpt lat="45.118339" lon="6.406085"><ele>1816.2</ele><time>2025-07-14T09:32:32Z</time></trkpt>
<trkpt lat="45.118171" lon="6.406046"><ele>1817.2</ele><time>2025-07-14T09:32:46Z</time></trkpt>
<trkpt lat="45.118004" lon="6.406008"><ele>1818.3</ele><time>2025-07-14T09:33:00Z</time></trkpt>
<trkpt lat="45.117859" lon="6.405952"><ele>1819.5</ele><time>2025-07-14T09:33:14Z</time></trkpt>
<trkpt lat="45.117713" lon="6.405896"><ele>1820.8</ele><time>2025-07-14T09:33:28Z</time></trkpt>
<trkpt lat="45.117568" lon="6.405840"><ele>1822.1</ele><time>2025-07-14T09:33:42Z</time></trkpt>
<trkpt lat="45.117423" lon="6.405783"><ele>1823.4</ele><time>2025-07-14T09:33:56Z</time></trkpt>
<trkpt lat="45.117279" lon="6.405727"><ele>1824.7</ele><time>2025-07-14T09:34:10Z</time></trkpt>
<trkpt lat="45.117134" lon="6.405671"><ele>1826.0</ele><time>2025-07-14T09:34:24Z</time></trkpt>
<trkpt lat="45.116989" lon="6.405614"><ele>1827.3</ele><time>2025-07-14T09:34:38Z</time></trkpt>
<trkpt lat="45.116845" lon="6.405558"><ele>1828.6</ele><time>2025-07-14T09:34:52Z</time></trkpt>
<trkpt lat="45.116700" lon="6.405501"><ele>1829.9</ele><time>2025-07-14T09:35:06Z</time></trkpt>
<trkpt lat="45.116556" lon="6.405445"><ele>1831.2</ele><time>2025-07-14T09:35:20Z</time></trkpt>
<trkpt lat="45.116411" lon="6.405389"><ele>1832.5</ele><time>2025-07-14T09:35:34Z</time></trkpt>
<trkpt lat="45.116267" lon="6.405333"><ele>1833.8</ele><time>2025-07-14T09:35:48Z</time></trkpt>
<trkpt lat="45.116122" lon="6.405278"><ele>1835.2</ele><time>2025-07-14T09:36:02Z</time></trkpt>
<trkpt lat="45.115978" lon="6.405222"><ele>1836.5</ele><time>2025-07-14T09:36:16Z</time></trkpt>
<trkpt lat="45.115833" lon="6.405167"><ele>1837.9</ele><time>2025-07-14T09:36:30Z</time></trkpt>
<trkpt lat="45.115689" lon="6.405112"><ele>1839.2</ele><time>2025-07-14T09:36:44Z</time></trkpt>
<trkpt lat="45.115544" lon="6.405058"><ele>1840.6</ele><time>2025-07-14T09:36:58Z</time></trkpt>
<trkpt lat="45.115400" lon="6.405003"><ele>1841.9</ele><time>2025-07-14T09:37:12Z</time></trkpt>
<trkpt lat="45.115255" lon="6.404949"><ele>1843.3</ele><time>2025-07-14T09:37:26Z</time></trkpt>
<trkpt lat="45.115110" lon="6.404894"><ele>1844.7</ele><time>2025-07-14T09:37:40Z</time></trkpt>
<trkpt lat="45.114966" lon="6.404840"><ele>1846.1</ele><time>2025-07-14T09:37:54Z</time></trkpt>
<trkpt lat="45.114821" lon="6.404786"><ele>1847.5</ele><time>2025-07-14T09:38:08Z</time></trkpt>
<trkpt lat="45.114676" lon="6.404732"><ele>1848.9</ele><time>2025-07-14T09:38:22Z</time></trkpt>
<trkpt lat="45.114531" lon="6.404678"><ele>1850.3</ele><time>2025-07-14T09:38:36Z</time></trkpt>
<trkpt lat="45.114386" lon="6.404624"><ele>1851.7</ele><time>2025-07-14T09:38:50Z</time></trkpt>
<trkpt lat="45.114240" lon="6.404570"><ele>1853.2</ele><time>2025-07-14T09:39:04Z</time></trkpt>
<trkpt lat="45.114095" lon="6.404516"><ele>1854.6</ele><time>2025-07-14T09:39:18Z</time></trkpt>
<trkpt lat="45.113949" lon="6.404461"><ele>1856.0</ele><time>2025-07-14T09:39:32Z</time></trkpt>
<trkpt lat="45.113804" lon="6.404406"><ele>1857.5</ele><time>2025-07-14T09:39:46Z</time></trkpt>
<trkpt lat="45.113658" lon="6.404351"><ele>1859.0</ele><time>2025-07-14T09:40:00Z</time></trkpt>
<trkpt lat="45.113512" lon="6.404295"><ele>1860.5</ele><time>2025-07-14T09:40:14Z</time></trkpt>
<trkpt lat="45.113366" lon="6.404239"><ele>1862.0</ele><time>2025-07-14T09:40:28Z</time></trkpt>
<trkpt lat="45.113220" lon="6.404182"><ele>1863.5</ele><time>2025-07-14T09:40:42Z</time></trkpt>
<trkpt lat="45.113074" lon="6.404125"><ele>1865.0</ele><time>2025-07-14T09:40:56Z</time></trkpt>
<trkpt lat="45.112927" lon="6.404067"><ele>1866.5</ele><time>2025-07-14T09:41:10Z</time></trkpt>
<trkpt lat="45.112781" lon="6.404008"><ele>1868.0</ele><time>2025-07-14T09:41:24Z</time></trkpt>
<trkpt lat="45.112634" lon="6.403948"><ele>1869.6</ele><time>2025-07-14T09:41:38Z</time></trkpt>
<trkpt lat="45.112488" lon="6.403888"><ele>1871.1</ele><time>2025-07-14T09:41:52Z</time></trkpt>
<trkpt lat="45.112341" lon="6.403827"><ele>1872.7</ele><time>2025-07-14T09:42:06Z</time></trkpt>
<trkpt lat="45.112194" lon="6.403766"><ele>1874.2</ele><time>2025-07-14T09:42:20Z</time></trkpt>
<trkpt lat="45.112048" lon="6.403703"><ele>1875.8</ele><time>2025-07-14T09:42:34Z</time></trkpt>
<trkpt lat="45.111901" lon="6.403640"><ele>1877.4</ele><time>2025-07-14T09:42:48Z</time></trkpt>
<trkpt lat="45.111754" lon="6.403575"><ele>1879.0</ele><time>2025-07-14T09:43:02Z</time></trkpt>
<trkpt lat="45.111607" lon="6.403511"><ele>1880.6</ele><time>2025-07-14T09:43:16Z</time></trkpt>
<trkpt lat="45.111461" lon="6.403445"><ele>1882.3</ele><time>2025-07-14T09:43:30Z</time></trkpt>
<trkpt lat="45.111314" lon="6.403379"><ele>1883.9</ele><time>2025-07-14T09:43:44Z</time></trkpt>
<trkpt lat="45.111167" lon="6.403312"><ele>1885.5</ele><time>2025-07-14T09:43:58Z</time></trkpt>
<trkpt lat="45.111021" lon="6.403245"><ele>1887.2</ele><time>2025-07-14T09:44:12Z</time></trkpt>
<trkpt lat="45.110874" lon="6.403177"><ele>1888.8</ele><time>2025-07-14T09:44:26Z</time></trkpt>
<trkpt lat="45.110728" lon="6.403108"><ele>1890.5</ele><time>2025-07-14T09:44:40Z</time></trkpt>
<trkpt lat="45.110582" lon="6.403040"><ele>1892.2</ele><time>2025-07-14T09:44:54Z</time></trkpt>
<trkpt lat="45.110435" lon="6.402971"><ele>1893.9</ele><time>2025-07-14T09:45:08Z</time></trkpt>
<trkpt lat="45.110290" lon="6.402903"><ele>1895.6</ele><time>2025-07-14T09:45:22Z</time></trkpt>
<trkpt lat="45.110144" lon="6.402834"><ele>1897.3</ele><time>2025-07-14T09:45:36Z</time></trkpt>
<trkpt lat="45.109998" lon="6.402765"><ele>1899.0</ele><time>2025-07-14T09:45:50Z</time></trkpt>
<trkpt lat="45.109853" lon="6.402697"><ele>1900.7</ele><time>2025-07-14T09:46:04Z</time></trkpt>
<trkpt lat="45.109708" lon="6.402630"><ele>1902.5</ele><time>2025-07-14T09:46:18Z</time></trkpt>
<trkpt lat="45.109564" lon="6.402563"><ele>1904.2</ele><time>2025-07-14T09:46:32Z</time></trkpt>
<trkpt lat="45.109419" lon="6.402496"><ele>1905.9</ele><time>2025-07-14T09:46:46Z</time></trkpt>
<trkpt lat="45.109275" lon="6.402431"><ele>1907.7</ele><time>2025-07-14T09:47:00Z</time></trkpt>
<trkpt lat="45.109132" lon="6.402367"><ele>1909.5</ele><time>2025-07-14T09:47:14Z</time></trkpt>
<trkpt lat="45.108988" lon="6.402304"><ele>1911.2</ele><time>2025-07-14T09:47:28Z</time></trkpt>
<trkpt lat="45.108846" lon="6.402242"><ele>1913.0</ele><time>2025-07-14T09:47:42Z</time></trkpt>
<trkpt lat="45.108703" lon="6.402182"><ele>1914.8</ele><time>2025-07-14T09:47:56Z</time></trkpt>
<trkpt lat="45.108561" lon="6.402123"><ele>1916.6</ele><time>2025-07-14T09:48:10Z</time></trkpt>
<trkpt lat="45.108419" lon="6.402066"><ele>1918.4</ele><time>2025-07-14T09:48:24Z</time></trkpt>
<trkpt lat="45.108278" lon="6.402011"><ele>1920.2</ele><time>2025-07-14T09:48:38Z</time></trkpt>
<trkpt lat="45.108137" lon="6.401958"><ele>1922.0</ele><time>2025-07-14T09:48:52Z</time></trkpt>
<trkpt lat="45.107996" lon="6.401907"><ele>1923.8</ele><time>2025-07-14T09:49:06Z</time></trkpt>
<trkpt lat="45.107856" lon="6.401858"><ele>1925.6</ele><time>2025-07-14T09:49:20Z</time></trkpt>
<trkpt lat="45.107717" lon="6.401812"><ele>1927.4</ele><time>2025-07-14T09:49:34Z</time></trkpt>
<trkpt lat="45.107578" lon="6.401767"><ele>1929.2</ele><time>2025-07-14T09:49:48Z</time></trkpt>
<trkpt lat="45.107439" lon="6.401725"><ele>1931.1</ele><time>2025-07-14T09:50:02Z</time></trkpt>
<trkpt lat="45.107301" lon="6.401686"><ele>1932.9</ele><time>2025-07-14T09:50:16Z</time></trkpt>
<trkpt lat="45.107163" lon="6.401648"><ele>1934.7</ele><time>2025-07-14T09:50:30Z</time></trkpt>
<trkpt lat="45.107025" lon="6.401613"><ele>1936.6</ele><time>2025-07-14T09:50:44Z</time></trkpt>
<trkpt lat="45.106888" lon="6.401581"><ele>1938.4</ele><time>2025-07-14T09:50:58Z</time></trkpt>
<trkpt lat="45.106751" lon="6.401550"><ele>1940.2</ele><time>2025-07-14T09:51:12Z</time></trkpt>
<trkpt lat="45.106615" lon="6.401522"><ele>1942.1</ele><time>2025-07-14T09:51:26Z</time></trkpt>
<trkpt lat="45.106479" lon="6.401496"><ele>1943.9</ele><time>2025-07-14T09:51:40Z</time></trkpt>
<trkpt lat="45.106344" lon="6.401472"><ele>1945.8</ele><time>2025-07-14T09:51:54Z</time></trkpt>
<trkpt lat="45.106208" lon="6.401449"><ele>1947.6</ele><time>2025-07-14T09:52:08Z</time></trkpt>
<trkpt lat="45.106073" lon="6.401429"><ele>1949.4</ele><time>2025-07-14T09:52:22Z</time></trkpt>
<trkpt lat="45.105938" lon="6.401410"><ele>1951.3</ele><time>2025-07-14T09:52:36Z</time></trkpt>
<trkpt lat="45.105804" lon="6.401392"><ele>1953.1</ele><time>2025-07-14T09:52:50Z</time></trkpt>
<trkpt lat="45.105669" lon="6.401376"><ele>1955.0</ele><time>2025-07-14T09:53:04Z</time></trkpt>
<trkpt lat="45.105535" lon="6.401360"><ele>1956.8</ele><time>2025-07-14T09:53:18Z</time></trkpt>
<trkpt lat="45.105401" lon="6.401345"><ele>1958.6</ele><time>2025-07-14T09:53:32Z</time></trkpt>
<trkpt lat="45.105267" lon="6.401331"><ele>1960.5</ele><time>2025-07-14T09:53:46Z</time></trkpt>
<trkpt lat="45.105133" lon="6.401317"><ele>1962.3</ele><time>2025-07-14T09:54:00Z</time></trkpt>
<trkpt lat="45.105010" lon="6.401336"><ele>1964.1</ele><time>2025-07-14T09:54:14Z</time></trkpt>
<trkpt lat="45.104888" lon="6.401355"><ele>1965.9</ele><time>2025-07-14T09:54:28Z</time></trkpt>
<trkpt lat="45.104765" lon="6.401373"><ele>1967.8</ele><time>2025-07-14T09:54:42Z</time></trkpt>
<trkpt lat="45.104642" lon="6.401390"><ele>1969.6</ele><time>2025-07-14T09:54:56Z</time></trkpt>
<trkpt lat="45.104519" lon="6.401406"><ele>1971.4</ele><time>2025-07-14T09:55:10Z</time></trkpt>
<trkpt lat="45.104395" lon="6.401421"><ele>1973.2</ele><time>2025-07-14T09:55:24Z</time></trkpt>
<trkpt lat="45.104272" lon="6.401434"><ele>1975.0</ele><time>2025-07-14T09:55:38Z</time></trkpt>
<trkpt lat="45.104148" lon="6.401444"><ele>1976.8</ele><time>2025-07-14T09:55:52Z</time></trkpt>
<trkpt lat="45.104024" lon="6.401453"><ele>1978.6</ele><time>2025-07-14T09:56:06Z</time></trkpt>
<trkpt lat="45.103899" lon="6.401458"><ele>1980.4</ele><time>2025-07-14T09:56:20Z</time></trkpt>
<trkpt lat="45.103774" lon="6.401461"><ele>1982.2</ele><time>2025-07-14T09:56:34Z</time></trkpt>
<trkpt lat="45.103649" lon="6.401460"><ele>1983.9</ele><time>2025-07-14T09:56:48Z</time></trkpt>
<trkpt lat="45.103523" lon="6.401457"><ele>1985.7</ele><time>2025-07-14T09:57:02Z</time></trkpt>
<trkpt lat="45.103396" lon="6.401449"><ele>1987.5</ele><time>2025-07-14T09:57:16Z</time></trkpt>
<trkpt lat="45.103269" lon="6.401438"><ele>1989.2</ele><time>2025-07-14T09:57:30Z</time></trkpt>
<trkpt lat="45.103142" lon="6.401422"><ele>1991.0</ele><time>2025-07-14T09:57:44Z</time></trkpt>
<trkpt lat="45.103013" lon="6.401402"><ele>1992.7</ele><time>2025-07-14T09:57:58Z</time></trkpt>
<trkpt lat="45.102884" lon="6.401378"><ele>1994.4</ele><time>2025-07-14T09:58:12Z</time></trkpt>
<trkpt lat="45.102755" lon="6.401349"><ele>1996.2</ele><time>2025-07-14T09:58:26Z</time></trkpt>
<trkpt lat="45.102624" lon="6.401316"><ele>1997.9</ele><time>2025-07-14T09:58:40Z</time></trkpt>
<trkpt lat="45.102493" lon="6.401278"><ele>1999.6</ele><time>2025-07-14T09:58:54Z</time></trkpt>
<trkpt lat="45.102361" lon="6.401235"><ele>2001.3</ele><time>2025-07-14T09:59:08Z</time></trkpt>
<trkpt lat="45.102228" lon="6.401188"><ele>2003.0</ele><time>2025-07-14T09:59:22Z</time></trkpt>
<trkpt lat="45.102094" lon="6.401135"><ele>2004.6</ele><time>2025-07-14T09:59:36Z</time></trkpt>
<trkpt lat="45.101959" lon="6.401078"><ele>2006.3</ele><time>2025-07-14T09:59:50Z</time></trkpt>
<trkpt lat="45.101823" lon="6.401017"><ele>2008.0</ele><time>2025-07-14T10:00:04Z</time></trkpt>
<trkpt lat="45.101686" lon="6.400951"><ele>2009.6</ele><time>2025-07-14T10:00:18Z</time></trkpt>
<trkpt lat="45.101549" lon="6.400880"><ele>2011.2</ele><time>2025-07-14T10:00:32Z</time></trkpt>
<trkpt lat="45.101410" lon="6.400806"><ele>2012.9</ele><time>2025-07-14T10:00:46Z</time></trkpt>
<trkpt lat="45.101271" lon="6.400727"><ele>2014.5</ele><time>2025-07-14T10:01:00Z</time></trkpt>
<trkpt lat="45.101130" lon="6.400645"><ele>2016.1</ele><time>2025-07-14T10:01:14Z</time></trkpt>
<trkpt lat="45.100989" lon="6.400559"><ele>2017.7</ele><time>2025-07-14T10:01:28Z</time></trkpt>
<trkpt lat="45.100846" lon="6.400470"><ele>2019.3</ele><time>2025-07-14T10:01:42Z</time></trkpt>
<trkpt lat="45.100703" lon="6.400379"><ele>2020.9</ele><time>2025-07-14T10:01:56Z</time></trkpt>
<trkpt lat="45.100559" lon="6.400284"><ele>2022.4</ele><time>2025-07-14T10:02:10Z</time></trkpt>
<trkpt lat="45.100413" lon="6.400188"><ele>2024.0</ele><time>2025-07-14T10:02:24Z</time></trkpt>
<trkpt lat="45.100267" lon="6.400090"><ele>2025.5</ele><time>2025-07-14T10:02:38Z</time></trkpt>
<trkpt lat="45.100120" lon="6.399990"><ele>2027.1</ele><time>2025-07-14T10:02:52Z</time></trkpt>
<trkpt lat="45.099972" lon="6.399890"><ele>2028.6</ele><time>2025-07-14T10:03:06Z</time></trkpt>
<trkpt lat="45.099824" lon="6.399789"><ele>2030.1</ele><time>2025-07-14T10:03:20Z</time></trkpt>
<trkpt lat="45.099674" lon="6.399688"><ele>2031.6</ele><time>2025-07-14T10:03:34Z</time></trkpt>
<trkpt lat="45.099524" lon="6.399588"><ele>2033.1</ele><time>2025-07-14T10:03:48Z</time></trkpt>
<trkpt lat="45.099373" lon="6.399488"><ele>2034.6</ele><time>2025-07-14T10:04:02Z</time></trkpt>
<trkpt lat="45.099221" lon="6.399390"><ele>2036.1</ele><time>2025-07-14T10:04:16Z</time></trkpt>
<trkpt lat="45.099069" lon="6.399294"><ele>2037.6</ele><time>2025-07-14T10:04:30Z</time></trkpt>
<trkpt lat="45.098916" lon="6.399200"><ele>2039.0</ele><time>2025-07-14T10:04:44Z</time></trkpt>
<trkpt lat="45.098762" lon="6.399109"><ele>2040.5</ele><time>2025-07-14T10:04:58Z</time></trkpt>
<trkpt lat="45.098609" lon="6.399021"><ele>2041.9</ele><time>2025-07-14T10:05:12Z</time></trkpt>
<trkpt lat="45.098454" lon="6.398937"><ele>2043.4</ele><time>2025-07-14T10:05:26Z</time></trkpt>
<trkpt lat="45.098299" lon="6.398856"><ele>2044.8</ele><time>2025-07-14T10:05:40Z</time></trkpt>
<trkpt lat="45.098144" lon="6.398781"><ele>2046.2</ele><time>2025-07-14T10:05:54Z</time></trkpt>
<trkpt lat="45.097989" lon="6.398710"><ele>2047.6</ele><time>2025-07-14T10:06:08Z</time></trkpt>
<trkpt lat="45.097834" lon="6.398644"><ele>2049.0</ele><time>2025-07-14T10:06:22Z</time></trkpt>
<trkpt lat="45.097678" lon="6.398584"><ele>2050.4</ele><time>2025-07-14T10:06:36Z</time></trkpt>
<trkpt lat="45.097522" lon="6.398530"><ele>2051.8</ele><time>2025-07-14T10:06:50Z</time></trkpt>
<trkpt lat="45.097367" lon="6.398482"><ele>2053.1</ele><time>2025-07-14T10:07:04Z</time></trkpt>
<trkpt lat="45.097211" lon="6.398441"><ele>2054.5</ele><time>2025-07-14T10:07:18Z</time></trkpt>
<trkpt lat="45.097056" lon="6.398406"><ele>2055.8</ele><time>2025-07-14T10:07:32Z</time></trkpt>
<trkpt lat="45.096901" lon="6.398378"><ele>2057.2</ele><time>2025-07-14T10:07:46Z</time></trkpt>
<trkpt lat="45.096746" lon="6.398357"><ele>2058.5</ele><time>2025-07-14T10:08:00Z</time></trkpt>
<trkpt lat="45.096591" lon="6.398343"><ele>2059.9</ele><time>2025-07-14T10:08:14Z</time></trkpt>
<trkpt lat="45.096437" lon="6.398336"><ele>2061.2</ele><time>2025-07-14T10:08:28Z</time></trkpt>
<trkpt lat="45.096284" lon="6.398336"><ele>2062.5</ele><time>2025-07-14T10:08:42Z</time></trkpt>
<trkpt lat="45.096131" lon="6.398343"><ele>2063.8</ele><time>2025-07-14T10:08:56Z</time></trkpt>
<trkpt lat="45.095979" lon="6.398358"><ele>2065.2</ele><time>2025-07-14T10:09:10Z</time></trkpt>
<trkpt lat="45.095827" lon="6.398379"><ele>2066.5</ele><time>2025-07-14T10:09:24Z</time></trkpt>
<trkpt lat="45.095676" lon="6.398407"><ele>2067.8</ele><time>2025-07-14T10:09:38Z</time></trkpt>
<trkpt lat="45.095526" lon="6.398441"><ele>2069.1</ele><time>2025-07-14T10:09:52Z</time></trkpt>
<trkpt lat="45.095377" lon="6.398482"><ele>2070.3</ele><time>2025-07-14T10:10:06Z</time></trkpt>
<trkpt lat="45.095229" lon="6.398529"><ele>2071.6</ele><time>2025-07-14T10:10:20Z</time></trkpt>
<trkpt lat="45.095082" lon="6.398581"><ele>2072.9</ele><time>2025-07-14T10:10:34Z</time></trkpt>
<trkpt lat="45.094936" lon="6.398639"><ele>2074.2</ele><time>2025-07-14T10:10:48Z</time></trkpt>
<trkpt lat="45.094791" lon="6.398702"><ele>2075.5</ele><time>2025-07-14T10:11:02Z</time></trkpt>
<trkpt lat="45.094647" lon="6.398769"><ele>2076.8</ele><time>2025-07-14T10:11:16Z</time></trkpt>
<trkpt lat="45.094504" lon="6.398841"><ele>2078.0</ele><time>2025-07-14T10:11:30Z</time></trkpt>
<trkpt lat="45.094363" lon="6.398916"><ele>2079.3</ele><time>2025-07-14T10:11:44Z</time></trkpt>
<trkpt lat="45.094223" lon="6.398994"><ele>2080.6</ele><time>2025-07-14T10:11:58Z</time></trkpt>
<trkpt lat="45.094084" lon="6.399074"><ele>2081.9</ele><time>2025-07-14T10:12:12Z</time></trkpt>
<trkpt lat="45.093947" lon="6.399157"><ele>2083.1</ele><time>2025-07-14T10:12:26Z</time></trkpt>
<trkpt lat="45.093810" lon="6.399241"><ele>2084.4</ele><time>2025-07-14T10:12:40Z</time></trkpt>
<trkpt lat="45.093676" lon="6.399326"><ele>2085.7</ele><time>2025-07-14T10:12:54Z</time></trkpt>
<trkpt lat="45.093542" lon="6.399411"><ele>2086.9</ele><time>2025-07-14T10:13:08Z</time></trkpt>
<trkpt lat="45.093410" lon="6.399496"><ele>2088.2</ele><time>2025-07-14T10:13:22Z</time></trkpt>
<trkpt lat="45.093280" lon="6.399580"><ele>2089.5</ele><time>2025-07-14T10:13:36Z</time></trkpt>
<trkpt lat="45.093151" lon="6.399662"><ele>2090.8</ele><time>2025-07-14T10:13:50Z</time></trkpt>
<trkpt lat="45.093023" lon="6.399742"><ele>2092.0</ele><time>2025-07-14T10:14:04Z</time></trkpt>
<trkpt lat="45.092897" lon="6.399820"><ele>2093.3</ele><time>2025-07-14T10:14:18Z</time></trkpt>
<trkpt lat="45.092772" lon="6.399894"><ele>2094.6</ele><time>2025-07-14T10:14:32Z</time></trkpt>
<trkpt lat="45.092648" lon="6.399964"><ele>2095.9</ele><time>2025-07-14T10:14:46Z</time></trkpt>
<trkpt lat="45.092526" lon="6.400030"><ele>2097.2</ele><time>2025-07-14T10:15:00Z</time></trkpt>
<trkpt lat="45.092427" lon="6.400147"><ele>2098.6</ele><time>2025-07-14T10:15:14Z</time></trkpt>
<trkpt lat="45.092330" lon="6.400258"><ele>2100.0</ele><time>2025-07-14T10:15:28Z</time></trkpt>
<trkpt lat="45.092234" lon="6.400364"><ele>2101.4</ele><time>2025-07-14T10:15:42Z</time></trkpt>
<trkpt lat="45.092139" lon="6.400463"><ele>2102.8</ele><time>2025-07-14T10:15:56Z</time></trkpt>
<trkpt lat="45.092045" lon="6.400555"><ele>2104.2</ele><time>2025-07-14T10:16:10Z</time></trkpt>
<trkpt lat="45.091953" lon="6.400641"><ele>2105.6</ele><time>2025-07-14T10:16:24Z</time></trkpt>
<trkpt lat="45.091861" lon="6.400719"><ele>2107.1</ele><time>2025-07-14T10:16:38Z</time></trkpt>
<trkpt lat="45.091771" lon="6.400789"><ele>2108.5</ele><time>2025-07-14T10:16:52Z</time></trkpt>
<trkpt lat="45.091682" lon="6.400852"><ele>2109.9</ele><time>2025-07-14T10:17:06Z</time></trkpt>
<trkpt lat="45.091593" lon="6.400906"><ele>2111.4</ele><time>2025-07-14T10:17:20Z</time></trkpt>
<trkpt lat="45.091505" lon="6.400952"><ele>2112.8</ele><time>2025-07-14T10:17:34Z</time></trkpt>
<trkpt lat="45.091419" lon="6.400990"><ele>2114.3</ele><time>2025-07-14T10:17:48Z</time></trkpt>
<trkpt lat="45.091332" lon="6.401020"><ele>2115.8</ele><time>2025-07-14T10:18:02Z</time></trkpt>
<trkpt lat="45.091247" lon="6.401041"><ele>2117.3</ele><time>2025-07-14T10:18:16Z</time></trkpt>
<trkpt lat="45.091162" lon="6.401055"><ele>2118.7</ele><time>2025-07-14T10:18:30Z</time></trkpt>
<trkpt lat="45.091077" lon="6.401059"><ele>2120.2</ele><time>2025-07-14T10:18:44Z</time></trkpt>
<trkpt lat="45.090993" lon="6.401056"><ele>2121.7</ele><time>2025-07-14T10:18:58Z</time></trkpt>
<trkpt lat="45.090910" lon="6.401045"><ele>2123.2</ele><time>2025-07-14T10:19:12Z</time></trkpt>
<trkpt lat="45.090826" lon="6.401027"><ele>2124.8</ele><time>2025-07-14T10:19:26Z</time></trkpt>
<trkpt lat="45.090743" lon="6.401001"><ele>2126.3</ele><time>2025-07-14T10:19:40Z</time></trkpt>
<trkpt lat="45.090660" lon="6.400968"><ele>2127.8</ele><time>2025-07-14T10:19:54Z</time></trkpt>
<trkpt lat="45.090577" lon="6.400928"><ele>2129.4</ele><time>2025-07-14T10:20:08Z</time></trkpt>
<trkpt lat="45.090494" lon="6.400882"><ele>2130.9</ele><time>2025-07-14T10:20:22Z</time></trkpt>
<trkpt lat="45.090410" lon="6.400831"><ele>2132.5</ele><time>2025-07-14T10:20:36Z</time></trkpt>
<trkpt lat="45.090327" lon="6.400774"><ele>2134.1</ele><time>2025-07-14T10:20:50Z</time></trkpt>
<trkpt lat="45.090243" lon="6.400712"><ele>2135.6</ele><time>2025-07-14T10:21:04Z</time></trkpt>
<trkpt lat="45.090159" lon="6.400646"><ele>2137.2</ele><time>2025-07-14T10:21:18Z</time></trkpt>
<trkpt lat="45.090074" lon="6.400576"><ele>2138.8</ele><time>2025-07-14T10:21:32Z</time></trkpt>
<trkpt lat="45.089989" lon="6.400503"><ele>2140.5</ele><time>2025-07-14T10:21:46Z</time></trkpt>
<trkpt lat="45.089903" lon="6.400427"><ele>2142.1</ele><time>2025-07-14T10:22:00Z</time></trkpt>
<trkpt lat="45.089816" lon="6.400350"><ele>2143.7</ele><time>2025-07-14T10:22:14Z</time></trkpt>
<trkpt lat="45.089729" lon="6.400271"><ele>2145.3</ele><time>2025-07-14T10:22:28Z</time></trkpt>
<trkpt lat="45.089641" lon="6.400191"><ele>2147.0</ele><time>2025-07-14T10:22:42Z</time></trkpt>
<trkpt lat="45.089552" lon="6.400111"><ele>2148.7</ele><time>2025-07-14T10:22:56Z</time></trkpt>
<trkpt lat="45.089462" lon="6.400032"><ele>2150.3</ele><time>2025-07-14T10:23:10Z</time></trkpt>
<trkpt lat="45.089371" lon="6.399954"><ele>2152.0</ele><time>2025-07-14T10:23:24Z</time></trkpt>
<trkpt lat="45.089279" lon="6.399878"><ele>2153.7</ele><time>2025-07-14T10:23:38Z</time></trkpt>
<trkpt lat="45.089186" lon="6.399804"><ele>2155.4</ele><time>2025-07-14T10:23:52Z</time></trkpt>
<trkpt lat="45.089092" lon="6.399732"><ele>2157.1</ele><time>2025-07-14T10:24:06Z</time></trkpt>
<trkpt lat="45.088996" lon="6.399665"><ele>2158.9</ele><time>2025-07-14T10:24:20Z</time></trkpt>
<trkpt lat="45.088899" lon="6.399601"><ele>2160.6</ele><time>2025-07-14T10:24:34Z</time></trkpt>
<trkpt lat="45.088801" lon="6.399542"><ele>2162.3</ele><time>2025-07-14T10:24:48Z</time></trkpt>
<trkpt lat="45.088702" lon="6.399488"><ele>2164.1</ele><time>2025-07-14T10:25:02Z</time></trkpt>
<trkpt lat="45.088601" lon="6.399440"><ele>2165.9</ele><time>2025-07-14T10:25:16Z</time></trkpt>
<trkpt lat="45.088499" lon="6.399397"><ele>2167.6</ele><time>2025-07-14T10:25:30Z</time></trkpt>
<trkpt lat="45.088396" lon="6.399361"><ele>2169.4</ele><time>2025-07-14T10:25:44Z</time></trkpt>
<trkpt lat="45.088291" lon="6.399331"><ele>2171.2</ele><time>2025-07-14T10:25:58Z</time></trkpt>
<trkpt lat="45.088185" lon="6.399308"><ele>2173.0</ele><time>2025-07-14T10:26:12Z</time></trkpt>
<trkpt lat="45.088077" lon="6.399293"><ele>2174.8</ele><time>2025-07-14T10:26:26Z</time></trkpt>
<trkpt lat="45.087968" lon="6.399284"><ele>2176.6</ele><time>2025-07-14T10:26:40Z</time></trkpt>
<trkpt lat="45.087858" lon="6.399284"><ele>2178.5</ele><time>2025-07-14T10:26:54Z</time></trkpt>
<trkpt lat="45.087746" lon="6.399291"><ele>2180.3</ele><time>2025-07-14T10:27:08Z</time></trkpt>
<trkpt lat="45.087633" lon="6.399306"><ele>2182.1</ele><time>2025-07-14T10:27:22Z</time></trkpt>
<trkpt lat="45.087518" lon="6.399329"><ele>2184.0</ele><time>2025-07-14T10:27:36Z</time></trkpt>
<trkpt lat="45.087402" lon="6.399359"><ele>2185.9</ele><time>2025-07-14T10:27:50Z</time></trkpt>
<trkpt lat="45.087285" lon="6.399397"><ele>2187.7</ele><time>2025-07-14T10:28:04Z</time></trkpt>
<trkpt lat="45.087166" lon="6.399443"><ele>2189.6</ele><time>2025-07-14T10:28:18Z</time></trkpt>
<trkpt lat="45.087047" lon="6.399497"><ele>2191.5</ele><time>2025-07-14T10:28:32Z</time></trkpt>
<trkpt lat="45.086926" lon="6.399558"><ele>2193.4</ele><time>2025-07-14T10:28:46Z</time></trkpt>
<trkpt lat="45.086803" lon="6.399626"><ele>2195.3</ele><time>2025-07-14T10:29:00Z</time></trkpt>
<trkpt lat="45.086680" lon="6.399700"><ele>2197.2</ele><time>2025-07-14T10:29:14Z</time></trkpt>
<trkpt lat="45.086556" lon="6.399782"><ele>2199.1</ele><time>2025-07-14T10:29:28Z</time></trkpt>
<trkpt lat="45.086430" lon="6.399869"><ele>2201.0</ele><time>2025-07-14T10:29:42Z</time></trkpt>
<trkpt lat="45.086304" lon="6.399962"><ele>2202.9</ele><time>2025-07-14T10:29:56Z</time></trkpt>
<trkpt lat="45.086176" lon="6.400061"><ele>2204.8</ele><time>2025-07-14T10:30:10Z</time></trkpt>
<trkpt lat="45.086048" lon="6.400165"><ele>2206.7</ele><time>2025-07-14T10:30:24Z</time></trkpt>
<trkpt lat="45.085919" lon="6.400273"><ele>2208.7</ele><time>2025-07-14T10:30:38Z</time></trkpt>
<trkpt lat="45.085789" lon="6.400386"><ele>2210.6</ele><time>2025-07-14T10:30:52Z</time></trkpt>
<trkpt lat="45.085659" lon="6.400502"><ele>2212.5</ele><time>2025-07-14T10:31:06Z</time></trkpt>
<trkpt lat="45.085528" lon="6.400620"><ele>2214.5</ele><time>2025-07-14T10:31:20Z</time></trkpt>
<trkpt lat="45.085396" lon="6.400742"><ele>2216.4</ele><time>2025-07-14T10:31:34Z</time></trkpt>
<trkpt lat="45.085264" lon="6.400866"><ele>2218.4</ele><time>2025-07-14T10:31:48Z</time></trkpt>
<trkpt lat="45.085132" lon="6.400991"><ele>2220.3</ele><time>2025-07-14T10:32:02Z</time></trkpt>
<trkpt lat="45.084999" lon="6.401117"><ele>2222.3</ele><time>2025-07-14T10:32:16Z</time></trkpt>
<trkpt lat="45.084866" lon="6.401243"><ele>2224.2</ele><time>2025-07-14T10:32:30Z</time></trkpt>
<trkpt lat="45.084733" lon="6.401369"><ele>2226.2</ele><time>2025-07-14T10:32:44Z</time></trkpt>
<trkpt lat="45.084599" lon="6.401495"><ele>2228.1</ele><time>2025-07-14T10:32:58Z</time></trkpt>
<trkpt lat="45.084466" lon="6.401619"><ele>2230.1</ele><time>2025-07-14T10:33:12Z</time></trkpt>
<trkpt lat="45.084333" lon="6.401742"><ele>2232.0</ele><time>2025-07-14T10:33:26Z</time></trkpt>
<trkpt lat="45.084199" lon="6.401863"><ele>2234.0</ele><time>2025-07-14T10:33:40Z</time></trkpt>
<trkpt lat="45.084066" lon="6.401981"><ele>2235.9</ele><time>2025-07-14T10:33:54Z</time></trkpt>
<trkpt lat="45.083933" lon="6.402096"><ele>2237.9</ele><time>2025-07-14T10:34:08Z</time></trkpt>
<trkpt lat="45.083800" lon="6.402208"><ele>2239.8</ele><time>2025-07-14T10:34:22Z</time></trkpt>
<trkpt lat="45.083668" lon="6.402316"><ele>2241.8</ele><time>2025-07-14T10:34:36Z</time></trkpt>
<trkpt lat="45.083536" lon="6.402419"><ele>2243.7</ele><time>2025-07-14T10:34:50Z</time></trkpt>
<trkpt lat="45.083405" lon="6.402518"><ele>2245.6</ele><time>2025-07-14T10:35:04Z</time></trkpt>
<trkpt lat="45.083274" lon="6.402613"><ele>2247.6</ele><time>2025-07-14T10:35:18Z</time></trkpt>
<trkpt lat="45.083143" lon="6.402702"><ele>2249.5</ele><time>2025-07-14T10:35:32Z</time></trkpt>
<trkpt lat="45.083014" lon="6.402786"><ele>2251.5</ele><time>2025-07-14T10:35:46Z</time></trkpt>
<trkpt lat="45.082884" lon="6.402865"><ele>2253.4</ele><time>2025-07-14T10:36:00Z</time></trkpt>
<trkpt lat="45.082767" lon="6.402938"><ele>2255.3</ele><time>2025-07-14T10:36:14Z</time></trkpt>
<trkpt lat="45.082651" lon="6.403006"><ele>2257.2</ele><time>2025-07-14T10:36:28Z</time></trkpt>
<trkpt lat="45.082535" lon="6.403067"><ele>2259.1</ele><time>2025-07-14T10:36:42Z</time></trkpt>
<trkpt lat="45.082420" lon="6.403123"><ele>2261.0</ele><time>2025-07-14T10:36:56Z</time></trkpt>
<trkpt lat="45.082306" lon="6.403173"><ele>2262.9</ele><time>2025-07-14T10:37:10Z</time></trkpt>
<trkpt lat="45.082193" lon="6.403217"><ele>2264.8</ele><time>2025-07-14T10:37:24Z</time></trkpt>
<trkpt lat="45.082080" lon="6.403255"><ele>2266.7</ele><time>2025-07-14T10:37:38Z</time></trkpt>
<trkpt lat="45.081969" lon="6.403288"><ele>2268.6</ele><time>2025-07-14T10:37:52Z</time></trkpt>
<trkpt lat="45.081858" lon="6.403315"><ele>2270.5</ele><time>2025-07-14T10:38:06Z</time></trkpt>
<trkpt lat="45.081749" lon="6.403337"><ele>2272.4</ele><time>2025-07-14T10:38:20Z</time></trkpt>
<trkpt lat="45.081640" lon="6.403354"><ele>2274.2</ele><time>2025-07-14T10:38:34Z</time></trkpt>
<trkpt lat="45.081533" lon="6.403366"><ele>2276.1</ele><time>2025-07-14T10:38:48Z</time></trkpt>
<trkpt lat="45.081426" lon="6.403373"><ele>2277.9</ele><time>2025-07-14T10:39:02Z</time></trkpt>
<trkpt lat="45.081320" lon="6.403376"><ele>2279.8</ele><time>2025-07-14T10:39:16Z</time></trkpt>
<trkpt lat="45.081215" lon="6.403375"><ele>2281.6</ele><time>2025-07-14T10:39:30Z</time></trkpt>
<trkpt lat="45.081112" lon="6.403369"><ele>2283.4</ele><time>2025-07-14T10:39:44Z</time></trkpt>
<trkpt lat="45.081009" lon="6.403361"><ele>2285.2</ele><time>2025-07-14T10:39:58Z</time></trkpt>
<trkpt lat="45.080907" lon="6.403349"><ele>2287.1</ele><time>2025-07-14T10:40:12Z</time></trkpt>
<trkpt lat="45.080806" lon="6.403334"><ele>2288.8</ele><time>2025-07-14T10:40:26Z</time></trkpt>
<trkpt lat="45.080706" lon="6.403317"><ele>2290.6</ele><time>2025-07-14T10:40:40Z</time></trkpt>
<trkpt lat="45.080607" lon="6.403298"><ele>2292.4</ele><time>2025-07-14T10:40:54Z</time></trkpt>
<trkpt lat="45.080508" lon="6.403277"><ele>2294.2</ele><time>2025-07-14T10:41:08Z</time></trkpt>
<trkpt lat="45.080411" lon="6.403255"><ele>2295.9</ele><time>2025-07-14T10:41:22Z</time></trkpt>
<trkpt lat="45.080314" lon="6.403232"><ele>2297.7</ele><time>2025-07-14T10:41:36Z</time></trkpt>
<trkpt lat="45.080218" lon="6.403208"><ele>2299.4</ele><time>2025-07-14T10:41:50Z</time></trkpt>
<trkpt lat="45.080122" lon="6.403184"><ele>2301.2</ele><time>2025-07-14T10:42:04Z</time></trkpt>
<trkpt lat="45.080028" lon="6.403161"><ele>2302.9</ele><time>2025-07-14T10:42:18Z</time></trkpt>
<trkpt lat="45.079934" lon="6.403137"><ele>2304.6</ele><time>2025-07-14T10:42:32Z</time></trkpt>
<trkpt lat="45.079840" lon="6.403115"><ele>2306.3</ele><time>2025-07-14T10:42:46Z</time></trkpt>
<trkpt lat="45.079748" lon="6.403093"><ele>2308.0</ele><time>2025-07-14T10:43:00Z</time></trkpt>
<trkpt lat="45.079655" lon="6.403073"><ele>2309.7</ele><time>2025-07-14T10:43:14Z</time></trkpt>
<trkpt lat="45.079563" lon="6.403055"><ele>2311.3</ele><time>2025-07-14T10:43:28Z</time></trkpt>
<trkpt lat="45.079472" lon="6.403039"><ele>2313.0</ele><time>2025-07-14T10:43:42Z</time></trkpt>
<trkpt lat="45.079381" lon="6.403024"><ele>2314.6</ele><time>2025-07-14T10:43:56Z</time></trkpt>
<trkpt lat="45.079290" lon="6.403013"><ele>2316.3</ele><time>2025-07-14T10:44:10Z</time></trkpt>
<trkpt lat="45.079200" lon="6.403003"><ele>2317.9</ele><time>2025-07-14T10:44:24Z</time></trkpt>
<trkpt lat="45.079110" lon="6.402997"><ele>2319.5</ele><time>2025-07-14T10:44:38Z</time></trkpt>
<trkpt lat="45.079020" lon="6.402994"><ele>2321.1</ele><time>2025-07-14T10:44:52Z</time></trkpt>
<trkpt lat="45.078930" lon="6.402993"><ele>2322.7</ele><time>2025-07-14T10:45:06Z</time></trkpt>
<trkpt lat="45.078841" lon="6.402996"><ele>2324.3</ele><time>2025-07-14T10:45:20Z</time></trkpt>
<trkpt lat="45.078751" lon="6.403002"><ele>2325.9</ele><time>2025-07-14T10:45:34Z</time></trkpt>
<trkpt lat="45.078662" lon="6.403011"><ele>2327.5</ele><time>2025-07-14T10:45:48Z</time></trkpt>
<trkpt lat="45.078572" lon="6.403024"><ele>2329.0</ele><time>2025-07-14T10:46:02Z</time></trkpt>
<trkpt lat="45.078483" lon="6.403040"><ele>2330.6</ele><time>2025-07-14T10:46:16Z</time></trkpt>
<trkpt lat="45.078393" lon="6.403059"><ele>2332.1</ele><time>2025-07-14T10:46:30Z</time></trkpt>
<trkpt lat="45.078303" lon="6.403081"><ele>2333.7</ele><time>2025-07-14T10:46:44Z</time></trkpt>
<trkpt lat="45.078214" lon="6.403107"><ele>2335.2</ele><time>2025-07-14T10:46:58Z</time></trkpt>
<trkpt lat="45.078124" lon="6.403135"><ele>2336.7</ele><time>2025-07-14T10:47:12Z</time></trkpt>
<trkpt lat="45.078033" lon="6.403167"><ele>2338.2</ele><time>2025-07-14T10:47:26Z</time></trkpt>
<trkpt lat="45.077943" lon="6.403202"><ele>2339.7</ele><time>2025-07-14T10:47:40Z</time></trkpt>
<trkpt lat="45.077852" lon="6.403239"><ele>2341.2</ele><time>2025-07-14T10:47:54Z</time></trkpt>
<trkpt lat="45.077761" lon="6.403279"><ele>2342.7</ele><time>2025-07-14T10:48:08Z</time></trkpt>
<trkpt lat="45.077670" lon="6.403321"><ele>2344.1</ele><time>2025-07-14T10:48:22Z</time></trkpt>
<trkpt lat="45.077578" lon="6.403366"><ele>2345.6</ele><time>2025-07-14T10:48:36Z</time></trkpt>
<trkpt lat="45.077486" lon="6.403413"><ele>2347.1</ele><time>2025-07-14T10:48:50Z</time></trkpt>
<trkpt lat="45.077394" lon="6.403461"><ele>2348.5</ele><time>2025-07-14T10:49:04Z</time></trkpt>
<trkpt lat="45.077301" lon="6.403512"><ele>2350.0</ele><time>2025-07-14T10:49:18Z</time></trkpt>
<trkpt lat="45.077207" lon="6.403564"><ele>2351.4</ele><time>2025-07-14T10:49:32Z</time></trkpt>
<trkpt lat="45.077114" lon="6.403617"><ele>2352.8</ele><time>2025-07-14T10:49:46Z</time></trkpt>
<trkpt lat="45.077020" lon="6.403671"><ele>2354.3</ele><time>2025-07-14T10:50:00Z</time></trkpt>
<trkpt lat="45.076925" lon="6.403726"><ele>2355.7</ele><time>2025-07-14T10:50:14Z</time></trkpt>
<trkpt lat="45.076830" lon="6.403782"><ele>2357.1</ele><time>2025-07-14T10:50:28Z</time></trkpt>
<trkpt lat="45.076735" lon="6.403838"><ele>2358.5</ele><time>2025-07-14T10:50:42Z</time></trkpt>
<trkpt lat="45.076639" lon="6.403894"><ele>2359.9</ele><time>2025-07-14T10:50:56Z</time></trkpt>
<trkpt lat="45.076543" lon="6.403951"><ele>2361.3</ele><time>2025-07-14T10:51:10Z</time></trkpt>
<trkpt lat="45.076446" lon="6.404008"><ele>2362.7</ele><time>2025-07-14T10:51:24Z</time></trkpt>
<trkpt lat="45.076349" lon="6.404064"><ele>2364.1</ele><time>2025-07-14T10:51:38Z</time></trkpt>
<trkpt lat="45.076252" lon="6.404120"><ele>2365.5</ele><time>2025-07-14T10:51:52Z</time></trkpt>
<trkpt lat="45.076154" lon="6.404175"><ele>2366.9</ele><time>2025-07-14T10:52:06Z</time></trkpt>
<trkpt lat="45.076055" lon="6.404230"><ele>2368.3</ele><time>2025-07-14T10:52:20Z</time></trkpt>
<trkpt lat="45.075957" lon="6.404284"><ele>2369.7</ele><time>2025-07-14T10:52:34Z</time></trkpt>
<trkpt lat="45.075858" lon="6.404336"><ele>2371.1</ele><time>2025-07-14T10:52:48Z</time></trkpt>
<trkpt lat="45.075758" lon="6.404388"><ele>2372.5</ele><time>2025-07-14T10:53:02Z</time></trkpt>
<trkpt lat="45.075658" lon="6.404439"><ele>2373.8</ele><time>2025-07-14T10:53:16Z</time></trkpt>
<trkpt lat="45.075558" lon="6.404489"><ele>2375.2</ele><time>2025-07-14T10:53:30Z</time></trkpt>
<trkpt lat="45.075458" lon="6.404537"><ele>2376.6</ele><time>2025-07-14T10:53:44Z</time></trkpt>
<trkpt lat="45.075357" lon="6.404584"><ele>2378.0</ele><time>2025-07-14T10:53:58Z</time></trkpt>
<trkpt lat="45.075257" lon="6.404630"><ele>2379.4</ele><time>2025-07-14T10:54:12Z</time></trkpt>
<trkpt lat="45.075155" lon="6.404674"><ele>2380.7</ele><time>2025-07-14T10:54:26Z</time></trkpt>
<trkpt lat="45.075054" lon="6.404717"><ele>2382.1</ele><time>2025-07-14T10:54:40Z</time></trkpt>
<trkpt lat="45.074953" lon="6.404759"><ele>2383.5</ele><time>2025-07-14T10:54:54Z</time></trkpt>
<trkpt lat="45.074851" lon="6.404799"><ele>2384.9</ele><time>2025-07-14T10:55:08Z</time></trkpt>
<trkpt lat="45.074749" lon="6.404839"><ele>2386.3</ele><time>2025-07-14T10:55:22Z</time></trkpt>
<trkpt lat="45.074647" lon="6.404877"><ele>2387.7</ele><time>2025-07-14T10:55:36Z</time></trkpt>
<trkpt lat="45.074545" lon="6.404913"><ele>2389.1</ele><time>2025-07-14T10:55:50Z</time></trkpt>
<trkpt lat="45.074443" lon="6.404949"><ele>2390.5</ele><time>2025-07-14T10:56:04Z</time></trkpt>
<trkpt lat="45.074341" lon="6.404984"><ele>2391.9</ele><time>2025-07-14T10:56:18Z</time></trkpt>
<trkpt lat="45.074238" lon="6.405017"><ele>2393.3</ele><time>2025-07-14T10:56:32Z</time></trkpt>
<trkpt lat="45.074136" lon="6.405050"><ele>2394.7</ele><time>2025-07-14T10:56:46Z</time></trkpt>
<trkpt lat="45.074034" lon="6.405082"><ele>2396.1</ele><time>2025-07-14T10:57:00Z</time></trkpt>
<trkpt lat="45.073965" lon="6.405102"><ele>2397.3</ele><time>2025-07-14T10:57:14Z</time></trkpt>
<trkpt lat="45.073896" lon="6.405121"><ele>2398.5</ele><time>2025-07-14T10:57:28Z</time></trkpt>
<trkpt lat="45.073827" lon="6.405140"><ele>2399.7</ele><time>2025-07-14T10:57:42Z</time></trkpt>
<trkpt lat="45.073758" lon="6.405159"><ele>2400.9</ele><time>2025-07-14T10:57:56Z</time></trkpt>
<trkpt lat="45.073689" lon="6.405177"><ele>2402.1</ele><time>2025-07-14T10:58:10Z</time></trkpt>
<trkpt lat="45.073620" lon="6.405195"><ele>2403.4</ele><time>2025-07-14T10:58:24Z</time></trkpt>
<trkpt lat="45.073551" lon="6.405212"><ele>2404.6</ele><time>2025-07-14T10:58:38Z</time></trkpt>
<trkpt lat="45.073483" lon="6.405230"><ele>2405.8</ele><time>2025-07-14T10:58:52Z</time></trkpt>
<trkpt lat="45.073414" lon="6.405247"><ele>2407.1</ele><time>2025-07-14T10:59:06Z</time></trkpt>
<trkpt lat="45.073346" lon="6.405265"><ele>2408.4</ele><time>2025-07-14T10:59:20Z</time></trkpt>
<trkpt lat="45.073278" lon="6.405282"><ele>2409.6</ele><time>2025-07-14T10:59:34Z</time></trkpt>
<trkpt lat="45.073209" lon="6.405300"><ele>2410.9</ele><time>2025-07-14T10:59:48Z</time></trkpt>
<trkpt lat="45.073141" lon="6.405318"><ele>2412.2</ele><time>2025-07-14T11:00:02Z</time></trkpt>
<trkpt lat="45.073073" lon="6.405336"><ele>2413.5</ele><time>2025-07-14T11:00:16Z</time></trkpt>
<trkpt lat="45.073006" lon="6.405354"><ele>2414.7</ele><time>2025-07-14T11:00:30Z</time></trkpt>
<trkpt lat="45.072938" lon="6.405373"><ele>2416.1</ele><time>2025-07-14T11:00:44Z</time></trkpt>
<trkpt lat="45.072870" lon="6.405392"><ele>2417.4</ele><time>2025-07-14T11:00:58Z</time></trkpt>
<trkpt lat="45.072803" lon="6.405411"><ele>2418.7</ele><time>2025-07-14T11:01:12Z</time></trkpt>
<trkpt lat="45.072736" lon="6.405431"><ele>2420.0</ele><time>2025-07-14T11:01:26Z</time></trkpt>
<trkpt lat="45.072668" lon="6.405451"><ele>2421.4</ele><time>2025-07-14T11:01:40Z</time></trkpt>
<trkpt lat="45.072601" lon="6.405472"><ele>2422.7</ele><time>2025-07-14T11:01:54Z</time></trkpt>
<trkpt lat="45.072534" lon="6.405492"><ele>2424.1</ele><time>2025-07-14T11:02:08Z</time></trkpt>
<trkpt lat="45.072467" lon="6.405513"><ele>2425.5</ele><time>2025-07-14T11:02:22Z</time></trkpt>
<trkpt lat="45.072400" lon="6.405535"><ele>2426.8</ele><time>2025-07-14T11:02:36Z</time></trkpt>
<trkpt lat="45.072334" lon="6.405556"><ele>2428.2</ele><time>2025-07-14T11:02:50Z</time></trkpt>
<trkpt lat="45.072267" lon="6.405578"><ele>2429.6</ele><time>2025-07-14T11:03:04Z</time></trkpt>
<trkpt lat="45.072200" lon="6.405600"><ele>2431.0</ele><time>2025-07-14T11:03:18Z</time></trkpt>
<trkpt lat="45.072133" lon="6.405622"><ele>2432.5</ele><time>2025-07-14T11:03:32Z</time></trkpt>
<trkpt lat="45.072067" lon="6.405644"><ele>2433.9</ele><time>2025-07-14T11:03:46Z</time></trkpt>
<trkpt lat="45.072000" lon="6.405667"><ele>2435.3</ele><time>2025-07-14T11:04:00Z</time></trkpt>
<trkpt lat="45.071933" lon="6.405689"><ele>2436.8</ele><time>2025-07-14T11:04:14Z</time></trkpt>
<trkpt lat="45.071867" lon="6.405711"><ele>2438.2</ele><time>2025-07-14T11:04:28Z</time></trkpt>
<trkpt lat="45.071800" lon="6.405733"><ele>2439.7</ele><time>2025-07-14T11:04:42Z</time></trkpt>
<trkpt lat="45.071733" lon="6.405755"><ele>2441.2</ele><time>2025-07-14T11:04:56Z</time></trkpt>
<trkpt lat="45.071666" lon="6.405777"><ele>2442.7</ele><time>2025-07-14T11:05:10Z</time></trkpt>
<trkpt lat="45.071600" lon="6.405798"><ele>2444.2</ele><time>2025-07-14T11:05:24Z</time></trkpt>
<trkpt lat="45.071533" lon="6.405819"><ele>2445.7</ele><time>2025-07-14T11:05:38Z</time></trkpt>
<trkpt lat="45.071466" lon="6.405840"><ele>2447.2</ele><time>2025-07-14T11:05:52Z</time></trkpt>
<trkpt lat="45.071399" lon="6.405861"><ele>2448.8</ele><time>2025-07-14T11:06:06Z</time></trkpt>
<trkpt lat="45.071331" lon="6.405881"><ele>2450.3</ele><time>2025-07-14T11:06:20Z</time></trkpt>
<trkpt lat="45.071264" lon="6.405901"><ele>2451.9</ele><time>2025-07-14T11:06:34Z</time></trkpt>
<trkpt lat="45.071197" lon="6.405921"><ele>2453.4</ele><time>2025-07-14T11:06:48Z</time></trkpt>
<trkpt lat="45.071129" lon="6.405940"><ele>2455.0</ele><time>2025-07-14T11:07:02Z</time></trkpt>
<trkpt lat="45.071062" lon="6.405959"><ele>2456.6</ele><time>2025-07-14T11:07:16Z</time></trkpt>
<trkpt lat="45.070994" lon="6.405977"><ele>2458.2</ele><time>2025-07-14T11:07:30Z</time></trkpt>
<trkpt lat="45.070926" lon="6.405995"><ele>2459.8</ele><time>2025-07-14T11:07:44Z</time></trkpt>
<trkpt lat="45.070858" lon="6.406013"><ele>2461.4</ele><time>2025-07-14T11:07:58Z</time></trkpt>
<trkpt lat="45.070790" lon="6.406031"><ele>2463.0</ele><time>2025-07-14T11:08:12Z</time></trkpt>
<trkpt lat="45.070722" lon="6.406049"><ele>2464.6</ele><time>2025-07-14T11:08:26Z</time></trkpt>
<trkpt lat="45.070653" lon="6.406066"><ele>2466.2</ele><time>2025-07-14T11:08:40Z</time></trkpt>
<trkpt lat="45.070585" lon="6.406084"><ele>2467.9</ele><time>2025-07-14T11:08:54Z</time></trkpt>
<trkpt lat="45.070516" lon="6.406101"><ele>2469.5</ele><time>2025-07-14T11:09:08Z</time></trkpt>
<trkpt lat="45.070448" lon="6.406119"><ele>2471.2</ele><time>2025-07-14T11:09:22Z</time></trkpt>
<trkpt lat="45.070379" lon="6.406136"><ele>2472.8</ele><time>2025-07-14T11:09:36Z</time></trkpt>
<trkpt lat="45.070310" lon="6.406154"><ele>2474.5</ele><time>2025-07-14T11:09:50Z</time></trkpt>
<trkpt lat="45.070241" lon="6.406172"><ele>2476.2</ele><time>2025-07-14T11:10:04Z</time></trkpt>
<trkpt lat="45.070172" lon="6.406191"><ele>2477.8</ele><time>2025-07-14T11:10:18Z</time></trkpt>
<trkpt lat="45.070103" lon="6.406210"><ele>2479.5</ele><time>2025-07-14T11:10:32Z</time></trkpt>
<trkpt lat="45.070034" lon="6.406230"><ele>2481.2</ele><time>2025-07-14T11:10:46Z</time></trkpt>
<trkpt lat="45.069965" lon="6.406251"><ele>2482.9</ele><time>2025-07-14T11:11:00Z</time></trkpt>
<trkpt lat="45.069896" lon="6.406272"><ele>2484.6</ele><time>2025-07-14T11:11:14Z</time></trkpt>
<trkpt lat="45.069827" lon="6.406294"><ele>2486.3</ele><time>2025-07-14T11:11:28Z</time></trkpt>
<trkpt lat="45.069758" lon="6.406317"><ele>2488.0</ele><time>2025-07-14T11:11:42Z</time></trkpt>
<trkpt lat="45.069689" lon="6.406341"><ele>2489.7</ele><time>2025-07-14T11:11:56Z</time></trkpt>
<trkpt lat="45.069621" lon="6.406366"><ele>2491.4</ele><time>2025-07-14T11:12:10Z</time></trkpt>
<trkpt lat="45.069552" lon="6.406392"><ele>2493.2</ele><time>2025-07-14T11:12:24Z</time></trkpt>
<trkpt lat="45.069483" lon="6.406420"><ele>2494.9</ele><time>2025-07-14T11:12:38Z</time></trkpt>
<trkpt lat="45.069415" lon="6.406449"><ele>2496.6</ele><time>2025-07-14T11:12:52Z</time></trkpt>
<trkpt lat="45.069347" lon="6.406479"><ele>2498.3</ele><time>2025-07-14T11:13:06Z</time></trkpt>
<trkpt lat="45.069278" lon="6.406510"><ele>2500.1</ele><time>2025-07-14T11:13:20Z</time></trkpt>
<trkpt lat="45.069211" lon="6.406543"><ele>2501.8</ele><time>2025-07-14T11:13:34Z</time></trkpt>
<trkpt lat="45.069143" lon="6.406577"><ele>2503.5</ele><time>2025-07-14T11:13:48Z</time></trkpt>
<trkpt lat="45.069076" lon="6.406612"><ele>2505.2</ele><time>2025-07-14T11:14:02Z</time></trkpt>
<trkpt lat="45.069008" lon="6.406649"><ele>2507.0</ele><time>2025-07-14T11:14:16Z</time></trkpt>
<trkpt lat="45.068942" lon="6.406687"><ele>2508.7</ele><time>2025-07-14T11:14:30Z</time></trkpt>
<trkpt lat="45.068875" lon="6.406726"><ele>2510.4</ele><time>2025-07-14T11:14:44Z</time></trkpt>
<trkpt lat="45.068809" lon="6.406766"><ele>2512.2</ele><time>2025-07-14T11:14:58Z</time></trkpt>
<trkpt lat="45.068743" lon="6.406807"><ele>2513.9</ele><time>2025-07-14T11:15:12Z</time></trkpt>
<trkpt lat="45.068677" lon="6.406849"><ele>2515.6</ele><time>2025-07-14T11:15:26Z</time></trkpt>
<trkpt lat="45.068612" lon="6.406893"><ele>2517.3</ele><time>2025-07-14T11:15:40Z</time></trkpt>
<trkpt lat="45.068547" lon="6.406937"><ele>2519.1</ele><time>2025-07-14T11:15:54Z</time></trkpt>
<trkpt lat="45.068483" lon="6.406981"><ele>2520.8</ele><time>2025-07-14T11:16:08Z</time></trkpt>
<trkpt lat="45.068419" lon="6.407026"><ele>2522.5</ele><time>2025-07-14T11:16:22Z</time></trkpt>
<trkpt lat="45.068356" lon="6.407071"><ele>2524.2</ele><time>2025-07-14T11:16:36Z</time></trkpt>
<trkpt lat="45.068292" lon="6.407117"><ele>2525.9</ele><time>2025-07-14T11:16:50Z</time></trkpt>
<trkpt lat="45.068230" lon="6.407162"><ele>2527.6</ele><time>2025-07-14T11:17:04Z</time></trkpt>
<trkpt lat="45.068168" lon="6.407208"><ele>2529.3</ele><time>2025-07-14T11:17:18Z</time></trkpt>
<trkpt lat="45.068106" lon="6.407253"><ele>2531.0</ele><time>2025-07-14T11:17:32Z</time></trkpt>
<trkpt lat="45.068044" lon="6.407297"><ele>2532.7</ele><time>2025-07-14T11:17:46Z</time></trkpt>
<trkpt lat="45.067983" lon="6.407340"><ele>2534.4</ele><time>2025-07-14T11:18:00Z</time></trkpt>
<trkpt lat="45.067951" lon="6.407367"><ele>2535.9</ele><time>2025-07-14T11:18:14Z</time></trkpt>
<trkpt lat="45.067918" lon="6.407393"><ele>2537.3</ele><time>2025-07-14T11:18:28Z</time></trkpt>
<trkpt lat="45.067886" lon="6.407417"><ele>2538.8</ele><time>2025-07-14T11:18:42Z</time></trkpt>
<trkpt lat="45.067855" lon="6.407440"><ele>2540.3</ele><time>2025-07-14T11:18:56Z</time></trkpt>
<trkpt lat="45.067824" lon="6.407461"><ele>2541.7</ele><time>2025-07-14T11:19:10Z</time></trkpt>
<trkpt lat="45.067793" lon="6.407480"><ele>2543.2</ele><time>2025-07-14T11:19:24Z</time></trkpt>
<trkpt lat="45.067763" lon="6.407497"><ele>2544.6</ele><time>2025-07-14T11:19:38Z</time></trkpt>
<trkpt lat="45.067732" lon="6.407511"><ele>2546.1</ele><time>2025-07-14T11:19:52Z</time></trkpt>
<trkpt lat="45.067703" lon="6.407523"><ele>2547.5</ele><time>2025-07-14T11:20:06Z</time></trkpt>
<trkpt lat="45.067673" lon="6.407533"><ele>2548.9</ele><time>2025-07-14T11:20:20Z</time></trkpt>
<trkpt lat="45.067644" lon="6.407539"><ele>2550.3</ele><time>2025-07-14T11:20:34Z</time></trkpt>
<trkpt lat="45.067615" lon="6.407542"><ele>2551.7</ele><time>2025-07-14T11:20:48Z</time></trkpt>
<trkpt lat="45.067586" lon="6.407543"><ele>2553.1</ele><time>2025-07-14T11:21:02Z</time></trkpt>
<trkpt lat="45.067558" lon="6.407540"><ele>2554.5</ele><time>2025-07-14T11:21:16Z</time></trkpt>
<trkpt lat="45.067529" lon="6.407534"><ele>2555.9</ele><time>2025-07-14T11:21:30Z</time></trkpt>
<trkpt lat="45.067501" lon="6.407525"><ele>2557.2</ele><time>2025-07-14T11:21:44Z</time></trkpt>
<trkpt lat="45.067472" lon="6.407512"><ele>2558.6</ele><time>2025-07-14T11:21:58Z</time></trkpt>
<trkpt lat="45.067444" lon="6.407496"><ele>2559.9</ele><time>2025-07-14T11:22:12Z</time></trkpt>
<trkpt lat="45.067415" lon="6.407477"><ele>2561.3</ele><time>2025-07-14T11:22:26Z</time></trkpt>
<trkpt lat="45.067387" lon="6.407455"><ele>2562.6</ele><time>2025-07-14T11:22:40Z</time></trkpt>
<trkpt lat="45.067359" lon="6.407429"><ele>2563.9</ele><time>2025-07-14T11:22:54Z</time></trkpt>
<trkpt lat="45.067330" lon="6.407401"><ele>2565.2</ele><time>2025-07-14T11:23:08Z</time></trkpt>
<trkpt lat="45.067301" lon="6.407369"><ele>2566.5</ele><time>2025-07-14T11:23:22Z</time></trkpt>
<trkpt lat="45.067272" lon="6.407334"><ele>2567.8</ele><time>2025-07-14T11:23:36Z</time></trkpt>
<trkpt lat="45.067242" lon="6.407297"><ele>2569.1</ele><time>2025-07-14T11:23:50Z</time></trkpt>
<trkpt lat="45.067213" lon="6.407257"><ele>2570.3</ele><time>2025-07-14T11:24:04Z</time></trkpt>
<trkpt lat="45.067183" lon="6.407215"><ele>2571.6</ele><time>2025-07-14T11:24:18Z</time></trkpt>
<trkpt lat="45.067152" lon="6.407171"><ele>2572.8</ele><time>2025-07-14T11:24:32Z</time></trkpt>
<trkpt lat="45.067121" lon="6.407125"><ele>2574.1</ele><time>2025-07-14T11:24:46Z</time></trkpt>
<trkpt lat="45.067090" lon="6.407078"><ele>2575.3</ele><time>2025-07-14T11:25:00Z</time></trkpt>
<trkpt lat="45.067058" lon="6.407029"><ele>2576.5</ele><time>2025-07-14T11:25:14Z</time></trkpt>
<trkpt lat="45.067025" lon="6.406979"><ele>2577.7</ele><time>2025-07-14T11:25:28Z</time></trkpt>
<trkpt lat="45.066992" lon="6.406929"><ele>2578.9</ele><time>2025-07-14T11:25:42Z</time></trkpt>
<trkpt lat="45.066958" lon="6.406879"><ele>2580.1</ele><time>2025-07-14T11:25:56Z</time></trkpt>
<trkpt lat="45.066923" lon="6.406828"><ele>2581.3</ele><time>2025-07-14T11:26:10Z</time></trkpt>
<trkpt lat="45.066888" lon="6.406778"><ele>2582.5</ele><time>2025-07-14T11:26:24Z</time></trkpt>
<trkpt lat="45.066852" lon="6.406729"><ele>2583.6</ele><time>2025-07-14T11:26:38Z</time></trkpt>
<trkpt lat="45.066815" lon="6.406680"><ele>2584.8</ele><time>2025-07-14T11:26:52Z</time></trkpt>
<trkpt lat="45.066777" lon="6.406634"><ele>2585.9</ele><time>2025-07-14T11:27:06Z</time></trkpt>
<trkpt lat="45.066739" lon="6.406589"><ele>2587.0</ele><time>2025-07-14T11:27:20Z</time></trkpt>
<trkpt lat="45.066699" lon="6.406547"><ele>2588.1</ele><time>2025-07-14T11:27:34Z</time></trkpt>
<trkpt lat="45.066659" lon="6.406507"><ele>2589.2</ele><time>2025-07-14T11:27:48Z</time></trkpt>
<trkpt lat="45.066618" lon="6.406470"><ele>2590.3</ele><time>2025-07-14T11:28:02Z</time></trkpt>
<trkpt lat="45.066575" lon="6.406436"><ele>2591.4</ele><time>2025-07-14T11:28:16Z</time></trkpt>
<trkpt lat="45.066532" lon="6.406407"><ele>2592.5</ele><time>2025-07-14T11:28:30Z</time></trkpt>
<trkpt lat="45.066488" lon="6.406381"><ele>2593.6</ele><time>2025-07-14T11:28:44Z</time></trkpt>
<trkpt lat="45.066443" lon="6.406359"><ele>2594.7</ele><time>2025-07-14T11:28:58Z</time></trkpt>
<trkpt lat="45.066397" lon="6.406342"><ele>2595.7</ele><time>2025-07-14T11:29:12Z</time></trkpt>
<trkpt lat="45.066350" lon="6.406330"><ele>2596.8</ele><time>2025-07-14T11:29:26Z</time></trkpt>
<trkpt lat="45.066302" lon="6.406323"><ele>2597.8</ele><time>2025-07-14T11:29:40Z</time></trkpt>
<trkpt lat="45.066253" lon="6.406321"><ele>2598.9</ele><time>2025-07-14T11:29:54Z</time></trkpt>
<trkpt lat="45.066203" lon="6.406324"><ele>2599.9</ele><time>2025-07-14T11:30:08Z</time></trkpt>
<trkpt lat="45.066152" lon="6.406333"><ele>2600.9</ele><time>2025-07-14T11:30:22Z</time></trkpt>
<trkpt lat="45.066101" lon="6.406348"><ele>2601.9</ele><time>2025-07-14T11:30:36Z</time></trkpt>
<trkpt lat="45.066048" lon="6.406368"><ele>2602.9</ele><time>2025-07-14T11:30:50Z</time></trkpt>
<trkpt lat="45.065994" lon="6.406395"><ele>2603.9</ele><time>2025-07-14T11:31:04Z</time></trkpt>
<trkpt lat="45.065940" lon="6.406427"><ele>2604.9</ele><time>2025-07-14T11:31:18Z</time></trkpt>
<trkpt lat="45.065885" lon="6.406465"><ele>2605.9</ele><time>2025-07-14T11:31:32Z</time></trkpt>
<trkpt lat="45.065829" lon="6.406509"><ele>2606.9</ele><time>2025-07-14T11:31:46Z</time></trkpt>
<trkpt lat="45.065773" lon="6.406558"><ele>2607.9</ele><time>2025-07-14T11:32:00Z</time></trkpt>
<trkpt lat="45.065715" lon="6.406613"><ele>2608.9</ele><time>2025-07-14T11:32:14Z</time></trkpt>
<trkpt lat="45.065658" lon="6.406673"><ele>2609.9</ele><time>2025-07-14T11:32:28Z</time></trkpt>
<trkpt lat="45.065599" lon="6.406739"><ele>2610.8</ele><time>2025-07-14T11:32:42Z</time></trkpt>
<trkpt lat="45.065540" lon="6.406809"><ele>2611.8</ele><time>2025-07-14T11:32:56Z</time></trkpt>
<trkpt lat="45.065481" lon="6.406884"><ele>2612.8</ele><time>2025-07-14T11:33:10Z</time></trkpt>
<trkpt lat="45.065421" lon="6.406964"><ele>2613.7</ele><time>2025-07-14T11:33:24Z</time></trkpt>
<trkpt lat="45.065360" lon="6.407047"><ele>2614.7</ele><time>2025-07-14T11:33:38Z</time></trkpt>
<trkpt lat="45.065300" lon="6.407134"><ele>2615.7</ele><time>2025-07-14T11:33:52Z</time></trkpt>
<trkpt lat="45.065239" lon="6.407224"><ele>2616.6</ele><time>2025-07-14T11:34:06Z</time></trkpt>
<trkpt lat="45.065178" lon="6.407317"><ele>2617.6</ele><time>2025-07-14T11:34:20Z</time></trkpt>
<trkpt lat="45.065117" lon="6.407412"><ele>2618.6</ele><time>2025-07-14T11:34:34Z</time></trkpt>
<trkpt lat="45.065056" lon="6.407509"><ele>2619.5</ele><time>2025-07-14T11:34:48Z</time></trkpt>
<trkpt lat="45.064994" lon="6.407607"><ele>2620.5</ele><time>2025-07-14T11:35:02Z</time></trkpt>
<trkpt lat="45.064933" lon="6.407707"><ele>2621.4</ele><time>2025-07-14T11:35:16Z</time></trkpt>
<trkpt lat="45.064872" lon="6.407807"><ele>2622.4</ele><time>2025-07-14T11:35:30Z</time></trkpt>
<trkpt lat="45.064812" lon="6.407906"><ele>2623.3</ele><time>2025-07-14T11:35:44Z</time></trkpt>
<trkpt lat="45.064751" lon="6.408005"><ele>2624.3</ele><time>2025-07-14T11:35:58Z</time></trkpt>
<trkpt lat="45.064691" lon="6.408103"><ele>2625.3</ele><time>2025-07-14T11:36:12Z</time></trkpt>
<trkpt lat="45.064632" lon="6.408198"><ele>2626.2</ele><time>2025-07-14T11:36:26Z</time></trkpt>
<trkpt lat="45.064573" lon="6.408292"><ele>2627.2</ele><time>2025-07-14T11:36:40Z</time></trkpt>
<trkpt lat="45.064514" lon="6.408383"><ele>2628.2</ele><time>2025-07-14T11:36:54Z</time></trkpt>
<trkpt lat="45.064456" lon="6.408470"><ele>2629.2</ele><time>2025-07-14T11:37:08Z</time></trkpt>
<trkpt lat="45.064399" lon="6.408554"><ele>2630.1</ele><time>2025-07-14T11:37:22Z</time></trkpt>
<trkpt lat="45.064343" lon="6.408633"><ele>2631.1</ele><time>2025-07-14T11:37:36Z</time></trkpt>
<trkpt lat="45.064287" lon="6.408707"><ele>2632.1</ele><time>2025-07-14T11:37:50Z</time></trkpt>
<trkpt lat="45.064232" lon="6.408777"><ele>2633.1</ele><time>2025-07-14T11:38:04Z</time></trkpt>
<trkpt lat="45.064179" lon="6.408840"><ele>2634.1</ele><time>2025-07-14T11:38:18Z</time></trkpt>
<trkpt lat="45.064126" lon="6.408898"><ele>2635.1</ele><time>2025-07-14T11:38:32Z</time></trkpt>
<trkpt lat="45.064074" lon="6.408949"><ele>2636.1</ele><time>2025-07-14T11:38:46Z</time></trkpt>
<trkpt lat="45.064500" lon="6.407600"><ele>2642.0</ele><time>2025-07-14T11:39:00Z</time></trkpt>
</trkseg></trk></gpx>