<?xml version="1.0" encoding="UTF-8"?>
<gpx version="1.1" creator="sample" xmlns="http://www.topografix.com/GPX/1/1">
<metadata><name>Descente vers le Lautaret</name></metadata>
<wpt lat="45.0335" lon="6.405"><name>Col du Lautaret</name></wpt>
<trk><name>Descente vers le Lautaret</name><trkseg>
<trkpt lat="45.064539" lon="6.408565"><ele>2647.2</ele><time>2025-07-15T09:00:00Z</time></trkpt>
<trkpt lat="45.064393" lon="6.408567"><ele>2644.6</ele><time>2025-07-15T09:00:13Z</time></trkpt>
<trkpt lat="45.064247" lon="6.408562"><ele>2642.0</ele><time>2025-07-15T09:00:26Z</time></trkpt>
<trkpt lat="45.064101" lon="6.408551"><ele>2639.3</ele><time>2025-07-15T09:00:39Z</time></trkpt>
<trkpt lat="45.063956" lon="6.408534"><ele>2636.7</ele><time>2025-07-15T09:00:52Z</time></trkpt>
<trkpt lat="45.063811" lon="6.408513"><ele>2634.0</ele><time>2025-07-15T09:01:05Z</time></trkpt>
<trkpt lat="45.063667" lon="6.408488"><ele>2631.4</ele><time>2025-07-15T09:01:18Z</time></trkpt>
<trkpt lat="45.063524" lon="6.408460"><ele>2628.7</ele><time>2025-07-15T09:01:31Z</time></trkpt>
<trkpt lat="45.063382" lon="6.408429"><ele>2626.0</ele><time>2025-07-15T09:01:44Z</time></trkpt>
<trkpt lat="45.063240" lon="6.408398"><ele>2623.3</ele><time>2025-07-15T09:01:57Z</time></trkpt>
<trkpt lat="45.063100" lon="6.408366"><ele>2620.6</ele><time>2025-07-15T09:02:10Z</time></trkpt>
<trkpt lat="45.062961" lon="6.408334"><ele>2617.8</ele><time>2025-07-15T09:02:23Z</time></trkpt>
<trkpt lat="45.062823" lon="6.408304"><ele>2615.1</ele><time>2025-07-15T09:02:36Z</time></trkpt>
<trkpt lat="45.062687" lon="6.408276"><ele>2612.3</ele><time>2025-07-15T09:02:49Z</time></trkpt>
<trkpt lat="45.062551" lon="6.408251"><ele>2609.6</ele><time>2025-07-15T09:03:02Z</time></trkpt>
<trkpt lat="45.062417" lon="6.408229"><ele>2606.8</ele><time>2025-07-15T09:03:15Z</time></trkpt>
<trkpt lat="45.062285" lon="6.408212"><ele>2604.0</ele><time>2025-07-15T09:03:28Z</time></trkpt>
<trkpt lat="45.062154" lon="6.408200"><ele>2601.2</ele><time>2025-07-15T09:03:41Z</time></trkpt>
<trkpt lat="45.062024" lon="6.408194"><ele>2598.4</ele><time>2025-07-15T09:03:54Z</time></trkpt>
<trkpt lat="45.061896" lon="6.408194"><ele>2595.5</ele><time>2025-07-15T09:04:07Z</time></trkpt>
<trkpt lat="45.061769" lon="6.408200"><ele>2592.7</ele><time>2025-07-15T09:04:20Z</time></trkpt>
<trkpt lat="45.061644" lon="6.408214"><ele>2589.8</ele><time>2025-07-15T09:04:33Z</time></trkpt>
<trkpt lat="45.061520" lon="6.408234"><ele>2587.0</ele><time>2025-07-15T09:04:46Z</time></trkpt>
<trkpt lat="45.061398" lon="6.408262"><ele>2584.1</ele><time>2025-07-15T09:04:59Z</time></trkpt>
<trkpt lat="45.061277" lon="6.408298"><ele>2581.2</ele><time>2025-07-15T09:05:12Z</time></trkpt>
<trkpt lat="45.061157" lon="6.408341"><ele>2578.3</ele><time>2025-07-15T09:05:25Z</time></trkpt>
<trkpt lat="45.061039" lon="6.408393"><ele>2575.4</ele><time>2025-07-15T09:05:38Z</time></trkpt>
<trkpt lat="45.060922" lon="6.408451"><ele>2572.5</ele><time>2025-07-15T09:05:51Z</time></trkpt>
<trkpt lat="45.060806" lon="6.408518"><ele>2569.6</ele><time>2025-07-15T09:06:04Z</time></trkpt>
<trkpt lat="45.060692" lon="6.408591"><ele>2566.6</ele><time>2025-07-15T09:06:17Z</time></trkpt>
<trkpt lat="45.060578" lon="6.408671"><ele>2563.7</ele><time>2025-07-15T09:06:30Z</time></trkpt>
<trkpt lat="45.060466" lon="6.408758"><ele>2560.8</ele><time>2025-07-15T09:06:43Z</time></trkpt>
<trkpt lat="45.060354" lon="6.408851"><ele>2557.8</ele><time>2025-07-15T09:06:56Z</time></trkpt>
<trkpt lat="45.060244" lon="6.408950"><ele>2554.8</ele><time>2025-07-15T09:07:09Z</time></trkpt>
<trkpt lat="45.060134" lon="6.409054"><ele>2551.9</ele><time>2025-07-15T09:07:22Z</time></trkpt>
<trkpt lat="45.060025" lon="6.409163"><ele>2548.9</ele><time>2025-07-15T09:07:35Z</time></trkpt>
<trkpt lat="45.059917" lon="6.409276"><ele>2545.9</ele><time>2025-07-15T09:07:48Z</time></trkpt>
<trkpt lat="45.059809" lon="6.409392"><ele>2542.9</ele><time>2025-07-15T09:08:01Z</time></trkpt>
<trkpt lat="45.059701" lon="6.409511"><ele>2539.9</ele><time>2025-07-15T09:08:14Z</time></trkpt>
<trkpt lat="45.059594" lon="6.409632"><ele>2536.9</ele><time>2025-07-15T09:08:27Z</time></trkpt>
<trkpt lat="45.059488" lon="6.409755"><ele>2533.9</ele><time>2025-07-15T09:08:40Z</time></trkpt>
<trkpt lat="45.059381" lon="6.409879"><ele>2530.9</ele><time>2025-07-15T09:08:53Z</time></trkpt>
<trkpt lat="45.059274" lon="6.410003"><ele>2527.9</ele><time>2025-07-15T09:09:06Z</time></trkpt>
<trkpt lat="45.059168" lon="6.410126"><ele>2524.9</ele><time>2025-07-15T09:09:19Z</time></trkpt>
<trkpt lat="45.059062" lon="6.410249"><ele>2521.9</ele><time>2025-07-15T09:09:32Z</time></trkpt>
<trkpt lat="45.058955" lon="6.410371"><ele>2518.8</ele><time>2025-07-15T09:09:45Z</time></trkpt>
<trkpt lat="45.058848" lon="6.410491"><ele>2515.8</ele><time>2025-07-15T09:09:58Z</time></trkpt>
<trkpt lat="45.058741" lon="6.410608"><ele>2512.8</ele><time>2025-07-15T09:10:11Z</time></trkpt>
<trkpt lat="45.058633" lon="6.410722"><ele>2509.8</ele><time>2025-07-15T09:10:24Z</time></trkpt>
<trkpt lat="45.058525" lon="6.410833"><ele>2506.8</ele><time>2025-07-15T09:10:37Z</time></trkpt>
<trkpt lat="45.058417" lon="6.410941"><ele>2503.8</ele><time>2025-07-15T09:10:50Z</time></trkpt>
<trkpt lat="45.058308" lon="6.411044"><ele>2500.8</ele><time>2025-07-15T09:11:03Z</time></trkpt>
<trkpt lat="45.058198" lon="6.411144"><ele>2497.8</ele><time>2025-07-15T09:11:16Z</time></trkpt>
<trkpt lat="45.058088" lon="6.411239"><ele>2494.8</ele><time>2025-07-15T09:11:29Z</time></trkpt>
<trkpt lat="45.057977" lon="6.411330"><ele>2491.8</ele><time>2025-07-15T09:11:42Z</time></trkpt>
<trkpt lat="45.057865" lon="6.411416"><ele>2488.8</ele><time>2025-07-15T09:11:55Z</time></trkpt>
<trkpt lat="45.057753" lon="6.411498"><ele>2485.8</ele><time>2025-07-15T09:12:08Z</time></trkpt>
<trkpt lat="45.057640" lon="6.411575"><ele>2482.8</ele><time>2025-07-15T09:12:21Z</time></trkpt>
<trkpt lat="45.057526" lon="6.411647"><ele>2479.8</ele><time>2025-07-15T09:12:34Z</time></trkpt>
<trkpt lat="45.057411" lon="6.411716"><ele>2476.8</ele><time>2025-07-15T09:12:47Z</time></trkpt>
<trkpt lat="45.057296" lon="6.411780"><ele>2473.9</ele><time>2025-07-15T09:13:00Z</time></trkpt>
<trkpt lat="45.057179" lon="6.411840"><ele>2470.9</ele><time>2025-07-15T09:13:13Z</time></trkpt>
<trkpt lat="45.057062" lon="6.411896"><ele>2468.0</ele><time>2025-07-15T09:13:26Z</time></trkpt>
<trkpt lat="45.056945" lon="6.411949"><ele>2465.0</ele><time>2025-07-15T09:13:39Z</time></trkpt>
<trkpt lat="45.056826" lon="6.411999"><ele>2462.1</ele><time>2025-07-15T09:13:52Z</time></trkpt>
<trkpt lat="45.056707" lon="6.412046"><ele>2459.2</ele><time>2025-07-15T09:14:05Z</time></trkpt>
<trkpt lat="45.056587" lon="6.412091"><ele>2456.2</ele><time>2025-07-15T09:14:18Z</time></trkpt>
<trkpt lat="45.056466" lon="6.412133"><ele>2453.3</ele><time>2025-07-15T09:14:31Z</time></trkpt>
<trkpt lat="45.056345" lon="6.412173"><ele>2450.4</ele><time>2025-07-15T09:14:44Z</time></trkpt>
<trkpt lat="45.056223" lon="6.412212"><ele>2447.6</ele><time>2025-07-15T09:14:57Z</time></trkpt>
<trkpt lat="45.056100" lon="6.412250"><ele>2444.7</ele><time>2025-07-15T09:15:10Z</time></trkpt>
<trkpt lat="45.055941" lon="6.412182"><ele>2441.7</ele><time>2025-07-15T09:15:23Z</time></trkpt>
<trkpt lat="45.055782" lon="6.412113"><ele>2438.7</ele><time>2025-07-15T09:15:36Z</time></trkpt>
<trkpt lat="45.055622" lon="6.412044"><ele>2435.8</ele><time>2025-07-15T09:15:49Z</time></trkpt>
<trkpt lat="45.055462" lon="6.411975"><ele>2432.8</ele><time>2025-07-15T09:16:02Z</time></trkpt>
<trkpt lat="45.055301" lon="6.411906"><ele>2429.9</ele><time>2025-07-15T09:16:15Z</time></trkpt>
<trkpt lat="45.055140" lon="6.411839"><ele>2427.0</ele><time>2025-07-15T09:16:28Z</time></trkpt>
<trkpt lat="45.054979" lon="6.411773"><ele>2424.1</ele><time>2025-07-15T09:16:41Z</time></trkpt>
<trkpt lat="45.054818" lon="6.411707"><ele>2421.2</ele><time>2025-07-15T09:16:54Z</time></trkpt>
<trkpt lat="45.054657" lon="6.411644"><ele>2418.3</ele><time>2025-07-15T09:17:07Z</time></trkpt>
<trkpt lat="45.054495" lon="6.411582"><ele>2415.4</ele><time>2025-07-15T09:17:20Z</time></trkpt>
<trkpt lat="45.054333" lon="6.411521"><ele>2412.6</ele><time>2025-07-15T09:17:33Z</time></trkpt>
<trkpt lat="45.054171" lon="6.411463"><ele>2409.7</ele><time>2025-07-15T09:17:46Z</time></trkpt>
<trkpt lat="45.054010" lon="6.411406"><ele>2406.9</ele><time>2025-07-15T09:17:59Z</time></trkpt>
<trkpt lat="45.053848" lon="6.411351"><ele>2404.1</ele><time>2025-07-15T09:18:12Z</time></trkpt>
<trkpt lat="45.053686" lon="6.411298"><ele>2401.3</ele><time>2025-07-15T09:18:25Z</time></trkpt>
<trkpt lat="45.053525" lon="6.411247"><ele>2398.5</ele><time>2025-07-15T09:18:38Z</time></trkpt>
<trkpt lat="45.053363" lon="6.411198"><ele>2395.7</ele><time>2025-07-15T09:18:51Z</time></trkpt>
<trkpt lat="45.053202" lon="6.411151"><ele>2392.9</ele><time>2025-07-15T09:19:04Z</time></trkpt>
<trkpt lat="45.053041" lon="6.411105"><ele>2390.1</ele><time>2025-07-15T09:19:17Z</time></trkpt>
<trkpt lat="45.052880" lon="6.411060"><ele>2387.4</ele><time>2025-07-15T09:19:30Z</time></trkpt>
<trkpt lat="45.052720" lon="6.411018"><ele>2384.7</ele><time>2025-07-15T09:19:43Z</time></trkpt>
<trkpt lat="45.052560" lon="6.410976"><ele>2381.9</ele><time>2025-07-15T09:19:56Z</time></trkpt>
<trkpt lat="45.052399" lon="6.410935"><ele>2379.2</ele><time>2025-07-15T09:20:09Z</time></trkpt>
<trkpt lat="45.052240" lon="6.410896"><ele>2376.5</ele><time>2025-07-15T09:20:22Z</time></trkpt>
<trkpt lat="45.052080" lon="6.410857"><ele>2373.8</ele><time>2025-07-15T09:20:35Z</time></trkpt>
<trkpt lat="45.051921" lon="6.410819"><ele>2371.1</ele><time>2025-07-15T09:20:48Z</time></trkpt>
<trkpt lat="45.051762" lon="6.410782"><ele>2368.5</ele><time>2025-07-15T09:21:01Z</time></trkpt>
<trkpt lat="45.051603" lon="6.410744"><ele>2365.8</ele><time>2025-07-15T09:21:14Z</time></trkpt>
<trkpt lat="45.051444" lon="6.410707"><ele>2363.1</ele><time>2025-07-15T09:21:27Z</time></trkpt>
<trkpt lat="45.051286" lon="6.410670"><ele>2360.5</ele><time>2025-07-15T09:21:40Z</time></trkpt>
<trkpt lat="45.051128" lon="6.410633"><ele>2357.8</ele><time>2025-07-15T09:21:53Z</time></trkpt>
<trkpt lat="45.050970" lon="6.410596"><ele>2355.2</ele><time>2025-07-15T09:22:06Z</time></trkpt>
<trkpt lat="45.050812" lon="6.410558"><ele>2352.6</ele><time>2025-07-15T09:22:19Z</time></trkpt>
<trkpt lat="45.050655" lon="6.410520"><ele>2349.9</ele><time>2025-07-15T09:22:32Z</time></trkpt>
<trkpt lat="45.050498" lon="6.410482"><ele>2347.3</ele><time>2025-07-15T09:22:45Z</time></trkpt>
<trkpt lat="45.050340" lon="6.410443"><ele>2344.7</ele><time>2025-07-15T09:22:58Z</time></trkpt>
<trkpt lat="45.050183" lon="6.410403"><ele>2342.1</ele><time>2025-07-15T09:23:11Z</time></trkpt>
<trkpt lat="45.050026" lon="6.410363"><ele>2339.5</ele><time>2025-07-15T09:23:24Z</time></trkpt>
<trkpt lat="45.049869" lon="6.410323"><ele>2336.9</ele><time>2025-07-15T09:23:37Z</time></trkpt>
<trkpt lat="45.049713" lon="6.410282"><ele>2334.3</ele><time>2025-07-15T09:23:50Z</time></trkpt>
<trkpt lat="45.049556" lon="6.410241"><ele>2331.7</ele><time>2025-07-15T09:24:03Z</time></trkpt>
<trkpt lat="45.049399" lon="6.410199"><ele>2329.1</ele><time>2025-07-15T09:24:16Z</time></trkpt>
<trkpt lat="45.049242" lon="6.410157"><ele>2326.6</ele><time>2025-07-15T09:24:29Z</time></trkpt>
<trkpt lat="45.049085" lon="6.410114"><ele>2324.0</ele><time>2025-07-15T09:24:42Z</time></trkpt>
<trkpt lat="45.048928" lon="6.410071"><ele>2321.4</ele><time>2025-07-15T09:24:55Z</time></trkpt>
<trkpt lat="45.048771" lon="6.410029"><ele>2318.8</ele><time>2025-07-15T09:25:08Z</time></trkpt>
<trkpt lat="45.048614" lon="6.409986"><ele>2316.2</ele><time>2025-07-15T09:25:21Z</time></trkpt>
<trkpt lat="45.048457" lon="6.409943"><ele>2313.6</ele><time>2025-07-15T09:25:34Z</time></trkpt>
<trkpt lat="45.048300" lon="6.409900"><ele>2311.0</ele><time>2025-07-15T09:25:47Z</time></trkpt>
<trkpt lat="45.048143" lon="6.409858"><ele>2308.5</ele><time>2025-07-15T09:26:00Z</time></trkpt>
<trkpt lat="45.047985" lon="6.409815"><ele>2305.9</ele><time>2025-07-15T09:26:13Z</time></trkpt>
<trkpt lat="45.047828" lon="6.409773"><ele>2303.3</ele><time>2025-07-15T09:26:26Z</time></trkpt>
<trkpt lat="45.047670" lon="6.409731"><ele>2300.7</ele><time>2025-07-15T09:26:39Z</time></trkpt>
<trkpt lat="45.047512" lon="6.409690"><ele>2298.1</ele><time>2025-07-15T09:26:52Z</time></trkpt>
<trkpt lat="45.047354" lon="6.409649"><ele>2295.5</ele><time>2025-07-15T09:27:05Z</time></trkpt>
<trkpt lat="45.047196" lon="6.409609"><ele>2292.8</ele><time>2025-07-15T09:27:18Z</time></trkpt>
<trkpt lat="45.047038" lon="6.409569"><ele>2290.2</ele><time>2025-07-15T09:27:31Z</time></trkpt>
<trkpt lat="45.046880" lon="6.409529"><ele>2287.6</ele><time>2025-07-15T09:27:44Z</time></trkpt>
<trkpt lat="45.046722" lon="6.409490"><ele>2285.0</ele><time>2025-07-15T09:27:57Z</time></trkpt>
<trkpt lat="45.046564" lon="6.409451"><ele>2282.3</ele><time>2025-07-15T09:28:10Z</time></trkpt>
<trkpt lat="45.046406" lon="6.409412"><ele>2279.7</ele><time>2025-07-15T09:28:23Z</time></trkpt>
<trkpt lat="45.046247" lon="6.409373"><ele>2277.0</ele><time>2025-07-15T09:28:36Z</time></trkpt>
<trkpt lat="45.046089" lon="6.409335"><ele>2274.4</ele><time>2025-07-15T09:28:49Z</time></trkpt>
<trkpt lat="45.045931" lon="6.409296"><ele>2271.7</ele><time>2025-07-15T09:29:02Z</time></trkpt>
<trkpt lat="45.045773" lon="6.409258"><ele>2269.0</ele><time>2025-07-15T09:29:15Z</time></trkpt>
<trkpt lat="45.045615" lon="6.409218"><ele>2266.3</ele><time>2025-07-15T09:29:28Z</time></trkpt>
<trkpt lat="45.045457" lon="6.409179"><ele>2263.6</ele><time>2025-07-15T09:29:41Z</time></trkpt>
<trkpt lat="45.045300" lon="6.409139"><ele>2260.9</ele><time>2025-07-15T09:29:54Z</time></trkpt>
<trkpt lat="45.045142" lon="6.409098"><ele>2258.2</ele><time>2025-07-15T09:30:07Z</time></trkpt>
<trkpt lat="45.044985" lon="6.409056"><ele>2255.4</ele><time>2025-07-15T09:30:20Z</time></trkpt>
<trkpt lat="45.044821" lon="6.408999"><ele>2252.8</ele><time>2025-07-15T09:30:33Z</time></trkpt>
<trkpt lat="45.044657" lon="6.408941"><ele>2250.2</ele><time>2025-07-15T09:30:46Z</time></trkpt>
<trkpt lat="45.044494" lon="6.408882"><ele>2247.5</ele><time>2025-07-15T09:30:59Z</time></trkpt>
<trkpt lat="45.044330" lon="6.408821"><ele>2244.8</ele><time>2025-07-15T09:31:12Z</time></trkpt>
<trkpt lat="45.044167" lon="6.408759"><ele>2242.2</ele><time>2025-07-15T09:31:25Z</time></trkpt>
<trkpt lat="45.044005" lon="6.408695"><ele>2239.5</ele><time>2025-07-15T09:31:38Z</time></trkpt>
<trkpt lat="45.043843" lon="6.408630"><ele>2236.8</ele><time>2025-07-15T09:31:51Z</time></trkpt>
<trkpt lat="45.043681" lon="6.408563"><ele>2234.0</ele><time>2025-07-15T09:32:04Z</time></trkpt>
<trkpt lat="45.043519" lon="6.408494"><ele>2231.3</ele><time>2025-07-15T09:32:17Z</time></trkpt>
<trkpt lat="45.043358" lon="6.408424"><ele>2228.6</ele><time>2025-07-15T09:32:30Z</time></trkpt>
<trkpt lat="45.043197" lon="6.408353"><ele>2225.8</ele><time>2025-07-15T09:32:43Z</time></trkpt>
<trkpt lat="45.043037" lon="6.408279"><ele>2223.1</ele><time>2025-07-15T09:32:56Z</time></trkpt>
<trkpt lat="45.042877" lon="6.408205"><ele>2220.3</ele><time>2025-07-15T09:33:09Z</time></trkpt>
<trkpt lat="45.042718" lon="6.408129"><ele>2217.5</ele><time>2025-07-15T09:33:22Z</time></trkpt>
<trkpt lat="45.042558" lon="6.408052"><ele>2214.7</ele><time>2025-07-15T09:33:35Z</time></trkpt>
<trkpt lat="45.042400" lon="6.407974"><ele>2211.9</ele><time>2025-07-15T09:33:48Z</time></trkpt>
<trkpt lat="45.042241" lon="6.407895"><ele>2209.0</ele><time>2025-07-15T09:34:01Z</time></trkpt>
<trkpt lat="45.042083" lon="6.407816"><ele>2206.2</ele><time>2025-07-15T09:34:14Z</time></trkpt>
<trkpt lat="45.041925" lon="6.407737"><ele>2203.4</ele><time>2025-07-15T09:34:27Z</time></trkpt>
<trkpt lat="45.041767" lon="6.407658"><ele>2200.5</ele><time>2025-07-15T09:34:40Z</time></trkpt>
<trkpt lat="45.041610" lon="6.407579"><ele>2197.6</ele><time>2025-07-15T09:34:53Z</time></trkpt>
<trkpt lat="45.041452" lon="6.407500"><ele>2194.7</ele><time>2025-07-15T09:35:06Z</time></trkpt>
<trkpt lat="45.041295" lon="6.407423"><ele>2191.8</ele><time>2025-07-15T09:35:19Z</time></trkpt>
<trkpt lat="45.041138" lon="6.407347"><ele>2188.9</ele><time>2025-07-15T09:35:32Z</time></trkpt>
<trkpt lat="45.040981" lon="6.407273"><ele>2186.0</ele><time>2025-07-15T09:35:45Z</time></trkpt>
<trkpt lat="45.040824" lon="6.407200"><ele>2183.1</ele><time>2025-07-15T09:35:58Z</time></trkpt>
<trkpt lat="45.040666" lon="6.407130"><ele>2180.2</ele><time>2025-07-15T09:36:11Z</time></trkpt>
<trkpt lat="45.040509" lon="6.407062"><ele>2177.2</ele><time>2025-07-15T09:36:24Z</time></trkpt>
<trkpt lat="45.040352" lon="6.406998"><ele>2174.3</ele><time>2025-07-15T09:36:37Z</time></trkpt>
<trkpt lat="45.040194" lon="6.406936"><ele>2171.3</ele><time>2025-07-15T09:36:50Z</time></trkpt>
<trkpt lat="45.040036" lon="6.406878"><ele>2168.4</ele><time>2025-07-15T09:37:03Z</time></trkpt>
<trkpt lat="45.039877" lon="6.406823"><ele>2165.4</ele><time>2025-07-15T09:37:16Z</time></trkpt>
<trkpt lat="45.039718" lon="6.406772"><ele>2162.4</ele><time>2025-07-15T09:37:29Z</time></trkpt>
<trkpt lat="45.039559" lon="6.406726"><ele>2159.4</ele><time>2025-07-15T09:37:42Z</time></trkpt>
<trkpt lat="45.039399" lon="6.406683"><ele>2156.4</ele><time>2025-07-15T09:37:55Z</time></trkpt>
<trkpt lat="45.039238" lon="6.406644"><ele>2153.5</ele><time>2025-07-15T09:38:08Z</time></trkpt>
<trkpt lat="45.039077" lon="6.406609"><ele>2150.5</ele><time>2025-07-15T09:38:21Z</time></trkpt>
<trkpt lat="45.038915" lon="6.406579"><ele>2147.5</ele><time>2025-07-15T09:38:34Z</time></trkpt>
<trkpt lat="45.038753" lon="6.406552"><ele>2144.4</ele><time>2025-07-15T09:38:47Z</time></trkpt>
<trkpt lat="45.038589" lon="6.406530"><ele>2141.4</ele><time>2025-07-15T09:39:00Z</time></trkpt>
<trkpt lat="45.038425" lon="6.406511"><ele>2138.4</ele><time>2025-07-15T09:39:13Z</time></trkpt>
<trkpt lat="45.038260" lon="6.406495"><ele>2135.4</ele><time>2025-07-15T09:39:26Z</time></trkpt>
<trkpt lat="45.038094" lon="6.406483"><ele>2132.4</ele><time>2025-07-15T09:39:39Z</time></trkpt>
<trkpt lat="45.037927" lon="6.406474"><ele>2129.4</ele><time>2025-07-15T09:39:52Z</time></trkpt>
<trkpt lat="45.037759" lon="6.406467"><ele>2126.4</ele><time>2025-07-15T09:40:05Z</time></trkpt>
<trkpt lat="45.037590" lon="6.406462"><ele>2123.4</ele><time>2025-07-15T09:40:18Z</time></trkpt>
<trkpt lat="45.037420" lon="6.406459"><ele>2120.3</ele><time>2025-07-15T09:40:31Z</time></trkpt>
<trkpt lat="45.037249" lon="6.406457"><ele>2117.3</ele><time>2025-07-15T09:40:44Z</time></trkpt>
<trkpt lat="45.037078" lon="6.406456"><ele>2114.3</ele><time>2025-07-15T09:40:57Z</time></trkpt>
<trkpt lat="45.036905" lon="6.406454"><ele>2111.3</ele><time>2025-07-15T09:41:10Z</time></trkpt>
<trkpt lat="45.036731" lon="6.406453"><ele>2108.3</ele><time>2025-07-15T09:41:23Z</time></trkpt>
<trkpt lat="45.036556" lon="6.406450"><ele>2105.3</ele><time>2025-07-15T09:41:36Z</time></trkpt>
<trkpt lat="45.036380" lon="6.406445"><ele>2102.3</ele><time>2025-07-15T09:41:49Z</time></trkpt>
<trkpt lat="45.036203" lon="6.406439"><ele>2099.3</ele><time>2025-07-15T09:42:02Z</time></trkpt>
<trkpt lat="45.036026" lon="6.406429"><ele>2096.3</ele><time>2025-07-15T09:42:15Z</time></trkpt>
<trkpt lat="45.035848" lon="6.406416"><ele>2093.3</ele><time>2025-07-15T09:42:28Z</time></trkpt>
<trkpt lat="45.035668" lon="6.406399"><ele>2090.4</ele><time>2025-07-15T09:42:41Z</time></trkpt>
<trkpt lat="45.035489" lon="6.406378"><ele>2087.4</ele><time>2025-07-15T09:42:54Z</time></trkpt>
<trkpt lat="45.035308" lon="6.406351"><ele>2084.4</ele><time>2025-07-15T09:43:07Z</time></trkpt>
<trkpt lat="45.035127" lon="6.406319"><ele>2081.5</ele><time>2025-07-15T09:43:20Z</time></trkpt>
<trkpt lat="45.034945" lon="6.406281"><ele>2078.5</ele><time>2025-07-15T09:43:33Z</time></trkpt>
<trkpt lat="45.034763" lon="6.406237"><ele>2075.6</ele><time>2025-07-15T09:43:46Z</time></trkpt>
<trkpt lat="45.034581" lon="6.406186"><ele>2072.7</ele><time>2025-07-15T09:43:59Z</time></trkpt>
<trkpt lat="45.034398" lon="6.406128"><ele>2069.8</ele><time>2025-07-15T09:44:12Z</time></trkpt>
<trkpt lat="45.034216" lon="6.406063"><ele>2066.9</ele><time>2025-07-15T09:44:25Z</time></trkpt>
<trkpt lat="45.034033" lon="6.405991"><ele>2064.0</ele><time>2025-07-15T09:44:38Z</time></trkpt>
<trkpt lat="45.033850" lon="6.405912"><ele>2061.1</ele><time>2025-07-15T09:44:51Z</time></trkpt>
<trkpt lat="45.033667" lon="6.405825"><ele>2058.2</ele><time>2025-07-15T09:45:04Z</time></trkpt>
<trkpt lat="45.033485" lon="6.405732"><ele>2055.3</ele><time>2025-07-15T09:45:17Z</time></trkpt>
<trkpt lat="45.033500" lon="6.405000"><ele>2058.0</ele><time>2025-07-15T09:45:30Z</time></trkpt>
</trkseg></trk></gpx>