<?xml version="1.0" encoding="UTF-8"?>
<gpx version="1.1" creator="sample" xmlns="http://www.topografix.com/GPX/1/1">
<metadata><name>Col du Télégraphe</name></metadata>
<wpt lat="45.203" lon="6.445"><name>Col du Télégraphe 1566 m</name></wpt>
<wpt lat="45.164" lon="6.4285"><name>Valloire</name></wpt>
<trk><name>Col du Télégraphe</name><trkseg>
<trkpt lat="45.215853" lon="6.471335"><ele>713.6</ele><time>2025-07-13T08:00:00Z</time></trkpt>
<trkpt lat="45.215767" lon="6.471217"><ele>716.6</ele><time>2025-07-13T08:00:13Z</time></trkpt>
<trkpt lat="45.215679" lon="6.471089"><ele>719.5</ele><time>2025-07-13T08:00:26Z</time></trkpt>
<trkpt lat="45.215591" lon="6.470950"><ele>722.4</ele><time>2025-07-13T08:00:39Z</time></trkpt>
<trkpt lat="45.215502" lon="6.470802"><ele>725.3</ele><time>2025-07-13T08:00:52Z</time></trkpt>
<trkpt lat="45.215412" lon="6.470644"><ele>728.2</ele><time>2025-07-13T08:01:05Z</time></trkpt>
<trkpt lat="45.215321" lon="6.470475"><ele>731.1</ele><time>2025-07-13T08:01:18Z</time></trkpt>
<trkpt lat="45.215229" lon="6.470297"><ele>733.9</ele><time>2025-07-13T08:01:31Z</time></trkpt>
<trkpt lat="45.215138" lon="6.470109"><ele>736.8</ele><time>2025-07-13T08:01:44Z</time></trkpt>
<trkpt lat="45.215045" lon="6.469912"><ele>739.7</ele><time>2025-07-13T08:01:57Z</time></trkpt>
<trkpt lat="45.214953" lon="6.469706"><ele>742.5</ele><time>2025-07-13T08:02:10Z</time></trkpt>
<trkpt lat="45.214861" lon="6.469492"><ele>745.3</ele><time>2025-07-13T08:02:23Z</time></trkpt>
<trkpt lat="45.214768" lon="6.469270"><ele>748.2</ele><time>2025-07-13T08:02:36Z</time></trkpt>
<trkpt lat="45.214676" lon="6.469041"><ele>751.0</ele><time>2025-07-13T08:02:49Z</time></trkpt>
<trkpt lat="45.214584" lon="6.468806"><ele>753.8</ele><time>2025-07-13T08:03:02Z</time></trkpt>
<trkpt lat="45.214493" lon="6.468566"><ele>756.5</ele><time>2025-07-13T08:03:15Z</time></trkpt>
<trkpt lat="45.214402" lon="6.468321"><ele>759.3</ele><time>2025-07-13T08:03:28Z</time></trkpt>
<trkpt lat="45.214312" lon="6.468072"><ele>762.1</ele><time>2025-07-13T08:03:41Z</time></trkpt>
<trkpt lat="45.214222" lon="6.467821"><ele>764.8</ele><time>2025-07-13T08:03:54Z</time></trkpt>
<trkpt lat="45.214134" lon="6.467568"><ele>767.6</ele><time>2025-07-13T08:04:07Z</time></trkpt>
<trkpt lat="45.214046" lon="6.467314"><ele>770.3</ele><time>2025-07-13T08:04:20Z</time></trkpt>
<trkpt lat="45.213960" lon="6.467060"><ele>773.0</ele><time>2025-07-13T08:04:33Z</time></trkpt>
<trkpt lat="45.213875" lon="6.466807"><ele>775.7</ele><time>2025-07-13T08:04:46Z</time></trkpt>
<trkpt lat="45.213791" lon="6.466557"><ele>778.4</ele><time>2025-07-13T08:04:59Z</time></trkpt>
<trkpt lat="45.213708" lon="6.466309"><ele>781.1</ele><time>2025-07-13T08:05:12Z</time></trkpt>
<trkpt lat="45.213627" lon="6.466066"><ele>783.7</ele><time>2025-07-13T08:05:25Z</time></trkpt>
<trkpt lat="45.213548" lon="6.465827"><ele>786.4</ele><time>2025-07-13T08:05:38Z</time></trkpt>
<trkpt lat="45.213470" lon="6.465594"><ele>789.0</ele><time>2025-07-13T08:05:51Z</time></trkpt>
<trkpt lat="45.213393" lon="6.465367"><ele>791.6</ele><time>2025-07-13T08:06:04Z</time></trkpt>
<trkpt lat="45.213319" lon="6.465147"><ele>794.2</ele><time>2025-07-13T08:06:17Z</time></trkpt>
<trkpt lat="45.213246" lon="6.464935"><ele>796.8</ele><time>2025-07-13T08:06:30Z</time></trkpt>
<trkpt lat="45.213174" lon="6.464731"><ele>799.4</ele><time>2025-07-13T08:06:43Z</time></trkpt>
<trkpt lat="45.213105" lon="6.464536"><ele>802.0</ele><time>2025-07-13T08:06:56Z</time></trkpt>
<trkpt lat="45.213037" lon="6.464350"><ele>804.6</ele><time>2025-07-13T08:07:09Z</time></trkpt>
<trkpt lat="45.212971" lon="6.464173"><ele>807.2</ele><time>2025-07-13T08:07:22Z</time></trkpt>
<trkpt lat="45.212906" lon="6.464005"><ele>809.7</ele><time>2025-07-13T08:07:35Z</time></trkpt>
<trkpt lat="45.212844" lon="6.463847"><ele>812.2</ele><time>2025-07-13T08:07:48Z</time></trkpt>
<trkpt lat="45.212783" lon="6.463699"><ele>814.8</ele><time>2025-07-13T08:08:01Z</time></trkpt>
<trkpt lat="45.212723" lon="6.463560"><ele>817.3</ele><time>2025-07-13T08:08:14Z</time></trkpt>
<trkpt lat="45.212665" lon="6.463430"><ele>819.8</ele><time>2025-07-13T08:08:27Z</time></trkpt>
<trkpt lat="45.212609" lon="6.463310"><ele>822.3</ele><time>2025-07-13T08:08:40Z</time></trkpt>
<trkpt lat="45.212554" lon="6.463198"><ele>824.8</ele><time>2025-07-13T08:08:53Z</time></trkpt>
<trkpt lat="45.212500" lon="6.463094"><ele>827.3</ele><time>2025-07-13T08:09:06Z</time></trkpt>
<trkpt lat="45.212448" lon="6.462998"><ele>829.8</ele><time>2025-07-13T08:09:19Z</time></trkpt>
<trkpt lat="45.212397" lon="6.462910"><ele>832.3</ele><time>2025-07-13T08:09:32Z</time></trkpt>
<trkpt lat="45.212347" lon="6.462827"><ele>834.7</ele><time>2025-07-13T08:09:45Z</time></trkpt>
<trkpt lat="45.212298" lon="6.462751"><ele>837.2</ele><time>2025-07-13T08:09:58Z</time></trkpt>
<trkpt lat="45.212250" lon="6.462680"><ele>839.7</ele><time>2025-07-13T08:10:11Z</time></trkpt>
<trkpt lat="45.212203" lon="6.462614"><ele>842.1</ele><time>2025-07-13T08:10:24Z</time></trkpt>
<trkpt lat="45.212157" lon="6.462551"><ele>844.6</ele><time>2025-07-13T08:10:37Z</time></trkpt>
<trkpt lat="45.212111" lon="6.462490"><ele>847.0</ele><time>2025-07-13T08:10:50Z</time></trkpt>
<trkpt lat="45.212065" lon="6.462432"><ele>849.5</ele><time>2025-07-13T08:11:03Z</time></trkpt>
<trkpt lat="45.212020" lon="6.462375"><ele>851.9</ele><time>2025-07-13T08:11:16Z</time></trkpt>
<trkpt lat="45.211976" lon="6.462318"><ele>854.4</ele><time>2025-07-13T08:11:29Z</time></trkpt>
<trkpt lat="45.211931" lon="6.462260"><ele>856.8</ele><time>2025-07-13T08:11:42Z</time></trkpt>
<trkpt lat="45.211887" lon="6.462202"><ele>859.2</ele><time>2025-07-13T08:11:55Z</time></trkpt>
<trkpt lat="45.211842" lon="6.462141"><ele>861.7</ele><time>2025-07-13T08:12:08Z</time></trkpt>
<trkpt lat="45.211798" lon="6.462077"><ele>864.1</ele><time>2025-07-13T08:12:21Z</time></trkpt>
<trkpt lat="45.211753" lon="6.462010"><ele>866.6</ele><time>2025-07-13T08:12:34Z</time></trkpt>
<trkpt lat="45.211708" lon="6.461938"><ele>869.0</ele><time>2025-07-13T08:12:47Z</time></trkpt>
<trkpt lat="45.211662" lon="6.461862"><ele>871.5</ele><time>2025-07-13T08:13:00Z</time></trkpt>
<trkpt lat="45.211616" lon="6.461781"><ele>873.9</ele><time>2025-07-13T08:13:13Z</time></trkpt>
<trkpt lat="45.211569" lon="6.461693"><ele>876.4</ele><time>2025-07-13T08:13:26Z</time></trkpt>
<trkpt lat="45.211522" lon="6.461600"><ele>878.8</ele><time>2025-07-13T08:13:39Z</time></trkpt>
<trkpt lat="45.211473" lon="6.461500"><ele>881.3</ele><time>2025-07-13T08:13:52Z</time></trkpt>
<trkpt lat="45.211424" lon="6.461394"><ele>883.7</ele><time>2025-07-13T08:14:05Z</time></trkpt>
<trkpt lat="45.211374" lon="6.461280"><ele>886.2</ele><time>2025-07-13T08:14:18Z</time></trkpt>
<trkpt lat="45.211323" lon="6.461159"><ele>888.7</ele><time>2025-07-13T08:14:31Z</time></trkpt>
<trkpt lat="45.211271" lon="6.461032"><ele>891.2</ele><time>2025-07-13T08:14:44Z</time></trkpt>
<trkpt lat="45.211218" lon="6.460897"><ele>893.7</ele><time>2025-07-13T08:14:57Z</time></trkpt>
<trkpt lat="45.211163" lon="6.460755"><ele>896.2</ele><time>2025-07-13T08:15:10Z</time></trkpt>
<trkpt lat="45.211102" lon="6.460638"><ele>899.5</ele><time>2025-07-13T08:15:23Z</time></trkpt>
<trkpt lat="45.211040" lon="6.460515"><ele>902.9</ele><time>2025-07-13T08:15:36Z</time></trkpt>
<trkpt lat="45.210977" lon="6.460385"><ele>906.3</ele><time>2025-07-13T08:15:49Z</time></trkpt>
<trkpt lat="45.210912" lon="6.460250"><ele>909.7</ele><time>2025-07-13T08:16:02Z</time></trkpt>
<trkpt lat="45.210846" lon="6.460109"><ele>913.1</ele><time>2025-07-13T08:16:15Z</time></trkpt>
<trkpt lat="45.210779" lon="6.459962"><ele>916.5</ele><time>2025-07-13T08:16:28Z</time></trkpt>
<trkpt lat="45.210711" lon="6.459812"><ele>919.9</ele><time>2025-07-13T08:16:41Z</time></trkpt>
<trkpt lat="45.210642" lon="6.459657"><ele>923.4</ele><time>2025-07-13T08:16:54Z</time></trkpt>
<trkpt lat="45.210572" lon="6.459499"><ele>926.8</ele><time>2025-07-13T08:17:07Z</time></trkpt>
<trkpt lat="45.210500" lon="6.459338"><ele>930.3</ele><time>2025-07-13T08:17:20Z</time></trkpt>
<trkpt lat="45.210428" lon="6.459174"><ele>933.7</ele><time>2025-07-13T08:17:33Z</time></trkpt>
<trkpt lat="45.210354" lon="6.459008"><ele>937.2</ele><time>2025-07-13T08:17:46Z</time></trkpt>
<trkpt lat="45.210280" lon="6.458842"><ele>940.7</ele><time>2025-07-13T08:17:59Z</time></trkpt>
<trkpt lat="45.210205" lon="6.458674"><ele>944.2</ele><time>2025-07-13T08:18:12Z</time></trkpt>
<trkpt lat="45.210129" lon="6.458507"><ele>947.7</ele><time>2025-07-13T08:18:25Z</time></trkpt>
<trkpt lat="45.210052" lon="6.458340"><ele>951.2</ele><time>2025-07-13T08:18:38Z</time></trkpt>
<trkpt lat="45.209974" lon="6.458174"><ele>954.7</ele><time>2025-07-13T08:18:51Z</time></trkpt>
<trkpt lat="45.209896" lon="6.458009"><ele>958.3</ele><time>2025-07-13T08:19:04Z</time></trkpt>
<trkpt lat="45.209817" lon="6.457846"><ele>961.9</ele><time>2025-07-13T08:19:17Z</time></trkpt>
<trkpt lat="45.209737" lon="6.457685"><ele>965.4</ele><time>2025-07-13T08:19:30Z</time></trkpt>
<trkpt lat="45.209657" lon="6.457527"><ele>969.0</ele><time>2025-07-13T08:19:43Z</time></trkpt>
<trkpt lat="45.209577" lon="6.457372"><ele>972.6</ele><time>2025-07-13T08:19:56Z</time></trkpt>
<trkpt lat="45.209497" lon="6.457220"><ele>976.2</ele><time>2025-07-13T08:20:09Z</time></trkpt>
<trkpt lat="45.209416" lon="6.457072"><ele>979.8</ele><time>2025-07-13T08:20:22Z</time></trkpt>
<trkpt lat="45.209335" lon="6.456927"><ele>983.5</ele><time>2025-07-13T08:20:35Z</time></trkpt>
<trkpt lat="45.209254" lon="6.456786"><ele>987.1</ele><time>2025-07-13T08:20:48Z</time></trkpt>
<trkpt lat="45.209173" lon="6.456649"><ele>990.8</ele><time>2025-07-13T08:21:01Z</time></trkpt>
<trkpt lat="45.209091" lon="6.456516"><ele>994.5</ele><time>2025-07-13T08:21:14Z</time></trkpt>
<trkpt lat="45.209010" lon="6.456387"><ele>998.1</ele><time>2025-07-13T08:21:27Z</time></trkpt>
<trkpt lat="45.208930" lon="6.456261"><ele>1001.8</ele><time>2025-07-13T08:21:40Z</time></trkpt>
<trkpt lat="45.208849" lon="6.456139"><ele>1005.5</ele><time>2025-07-13T08:21:53Z</time></trkpt>
<trkpt lat="45.208768" lon="6.456021"><ele>1009.2</ele><time>2025-07-13T08:22:06Z</time></trkpt>
<trkpt lat="45.208688" lon="6.455907"><ele>1013.0</ele><time>2025-07-13T08:22:19Z</time></trkpt>
<trkpt lat="45.208608" lon="6.455795"><ele>1016.7</ele><time>2025-07-13T08:22:32Z</time></trkpt>
<trkpt lat="45.208529" lon="6.455687"><ele>1020.5</ele><time>2025-07-13T08:22:45Z</time></trkpt>
<trkpt lat="45.208450" lon="6.455581"><ele>1024.2</ele><time>2025-07-13T08:22:58Z</time></trkpt>
<trkpt lat="45.208371" lon="6.455478"><ele>1028.0</ele><time>2025-07-13T08:23:11Z</time></trkpt>
<trkpt lat="45.208293" lon="6.455377"><ele>1031.7</ele><time>2025-07-13T08:23:24Z</time></trkpt>
<trkpt lat="45.208215" lon="6.455278"><ele>1035.5</ele><time>2025-07-13T08:23:37Z</time></trkpt>
<trkpt lat="45.208138" lon="6.455181"><ele>1039.3</ele><time>2025-07-13T08:23:50Z</time></trkpt>
<trkpt lat="45.208061" lon="6.455085"><ele>1043.1</ele><time>2025-07-13T08:24:03Z</time></trkpt>
<trkpt lat="45.207985" lon="6.454989"><ele>1046.9</ele><time>2025-07-13T08:24:16Z</time></trkpt>
<trkpt lat="45.207909" lon="6.454895"><ele>1050.7</ele><time>2025-07-13T08:24:29Z</time></trkpt>
<trkpt lat="45.207834" lon="6.454801"><ele>1054.5</ele><time>2025-07-13T08:24:42Z</time></trkpt>
<trkpt lat="45.207759" lon="6.454707"><ele>1058.3</ele><time>2025-07-13T08:24:55Z</time></trkpt>
<trkpt lat="45.207685" lon="6.454613"><ele>1062.2</ele><time>2025-07-13T08:25:08Z</time></trkpt>
<trkpt lat="45.207611" lon="6.454518"><ele>1066.0</ele><time>2025-07-13T08:25:21Z</time></trkpt>
<trkpt lat="45.207538" lon="6.454423"><ele>1069.8</ele><time>2025-07-13T08:25:34Z</time></trkpt>
<trkpt lat="45.207465" lon="6.454327"><ele>1073.7</ele><time>2025-07-13T08:25:47Z</time></trkpt>
<trkpt lat="45.207393" lon="6.454230"><ele>1077.5</ele><time>2025-07-13T08:26:00Z</time></trkpt>
<trkpt lat="45.207321" lon="6.454132"><ele>1081.3</ele><time>2025-07-13T08:26:13Z</time></trkpt>
<trkpt lat="45.207249" lon="6.454032"><ele>1085.2</ele><time>2025-07-13T08:26:26Z</time></trkpt>
<trkpt lat="45.207178" lon="6.453932"><ele>1089.0</ele><time>2025-07-13T08:26:39Z</time></trkpt>
<trkpt lat="45.207107" lon="6.453829"><ele>1092.9</ele><time>2025-07-13T08:26:52Z</time></trkpt>
<trkpt lat="45.207037" lon="6.453726"><ele>1096.7</ele><time>2025-07-13T08:27:05Z</time></trkpt>
<trkpt lat="45.206966" lon="6.453620"><ele>1100.6</ele><time>2025-07-13T08:27:18Z</time></trkpt>
<trkpt lat="45.206896" lon="6.453514"><ele>1104.4</ele><time>2025-07-13T08:27:31Z</time></trkpt>
<trkpt lat="45.206826" lon="6.453405"><ele>1108.2</ele><time>2025-07-13T08:27:44Z</time></trkpt>
<trkpt lat="45.206757" lon="6.453296"><ele>1112.1</ele><time>2025-07-13T08:27:57Z</time></trkpt>
<trkpt lat="45.206687" lon="6.453185"><ele>1115.9</ele><time>2025-07-13T08:28:10Z</time></trkpt>
<trkpt lat="45.206617" lon="6.453073"><ele>1119.8</ele><time>2025-07-13T08:28:23Z</time></trkpt>
<trkpt lat="45.206548" lon="6.452960"><ele>1123.6</ele><time>2025-07-13T08:28:36Z</time></trkpt>
<trkpt lat="45.206478" lon="6.452845"><ele>1127.4</ele><time>2025-07-13T08:28:49Z</time></trkpt>
<trkpt lat="45.206409" lon="6.452730"><ele>1131.2</ele><time>2025-07-13T08:29:02Z</time></trkpt>
<trkpt lat="45.206340" lon="6.452614"><ele>1135.0</ele><time>2025-07-13T08:29:15Z</time></trkpt>
<trkpt lat="45.206270" lon="6.452497"><ele>1138.8</ele><time>2025-07-13T08:29:28Z</time></trkpt>
<trkpt lat="45.206201" lon="6.452380"><ele>1142.6</ele><time>2025-07-13T08:29:41Z</time></trkpt>
<trkpt lat="45.206131" lon="6.452263"><ele>1146.4</ele><time>2025-07-13T08:29:54Z</time></trkpt>
<trkpt lat="45.206061" lon="6.452145"><ele>1150.2</ele><time>2025-07-13T08:30:07Z</time></trkpt>
<trkpt lat="45.205991" lon="6.452027"><ele>1154.0</ele><time>2025-07-13T08:30:20Z</time></trkpt>
<trkpt lat="45.205950" lon="6.451923"><ele>1160.1</ele><time>2025-07-13T08:30:33Z</time></trkpt>
<trkpt lat="45.205908" lon="6.451820"><ele>1166.3</ele><time>2025-07-13T08:30:46Z</time></trkpt>
<trkpt lat="45.205867" lon="6.451716"><ele>1172.4</ele><time>2025-07-13T08:30:59Z</time></trkpt>
<trkpt lat="45.205825" lon="6.451613"><ele>1178.5</ele><time>2025-07-13T08:31:12Z</time></trkpt>
<trkpt lat="45.205783" lon="6.451510"><ele>1184.6</ele><time>2025-07-13T08:31:25Z</time></trkpt>
<trkpt lat="45.205741" lon="6.451408"><ele>1190.7</ele><time>2025-07-13T08:31:38Z</time></trkpt>
<trkpt lat="45.205699" lon="6.451305"><ele>1196.8</ele><time>2025-07-13T08:31:51Z</time></trkpt>
<trkpt lat="45.205656" lon="6.451204"><ele>1202.9</ele><time>2025-07-13T08:32:04Z</time></trkpt>
<trkpt lat="45.205614" lon="6.451102"><ele>1208.9</ele><time>2025-07-13T08:32:17Z</time></trkpt>
<trkpt lat="45.205571" lon="6.451001"><ele>1215.0</ele><time>2025-07-13T08:32:30Z</time></trkpt>
<trkpt lat="45.205528" lon="6.450901"><ele>1221.0</ele><time>2025-07-13T08:32:43Z</time></trkpt>
<trkpt lat="45.205486" lon="6.450800"><ele>1227.1</ele><time>2025-07-13T08:32:56Z</time></trkpt>
<trkpt lat="45.205443" lon="6.450700"><ele>1233.1</ele><time>2025-07-13T08:33:09Z</time></trkpt>
<trkpt lat="45.205400" lon="6.450600"><ele>1239.1</ele><time>2025-07-13T08:33:22Z</time></trkpt>
<trkpt lat="45.205357" lon="6.450500"><ele>1245.1</ele><time>2025-07-13T08:33:35Z</time></trkpt>
<trkpt lat="45.205314" lon="6.450400"><ele>1251.0</ele><time>2025-07-13T08:33:48Z</time></trkpt>
<trkpt lat="45.205271" lon="6.450300"><ele>1257.0</ele><time>2025-07-13T08:34:01Z</time></trkpt>
<trkpt lat="45.205229" lon="6.450200"><ele>1263.0</ele><time>2025-07-13T08:34:14Z</time></trkpt>
<trkpt lat="45.205186" lon="6.450100"><ele>1268.9</ele><time>2025-07-13T08:34:27Z</time></trkpt>
<trkpt lat="45.205143" lon="6.449999"><ele>1274.8</ele><time>2025-07-13T08:34:40Z</time></trkpt>
<trkpt lat="45.205100" lon="6.449898"><ele>1280.8</ele><time>2025-07-13T08:34:53Z</time></trkpt>
<trkpt lat="45.205058" lon="6.449797"><ele>1286.7</ele><time>2025-07-13T08:35:06Z</time></trkpt>
<trkpt lat="45.205016" lon="6.449695"><ele>1292.6</ele><time>2025-07-13T08:35:19Z</time></trkpt>
<trkpt lat="45.204973" lon="6.449592"><ele>1298.4</ele><time>2025-07-13T08:35:32Z</time></trkpt>
<trkpt lat="45.204931" lon="6.449489"><ele>1304.3</ele><time>2025-07-13T08:35:45Z</time></trkpt>
<trkpt lat="45.204889" lon="6.449386"><ele>1310.2</ele><time>2025-07-13T08:35:58Z</time></trkpt>
<trkpt lat="45.204848" lon="6.449281"><ele>1316.0</ele><time>2025-07-13T08:36:11Z</time></trkpt>
<trkpt lat="45.204806" lon="6.449177"><ele>1321.8</ele><time>2025-07-13T08:36:24Z</time></trkpt>
<trkpt lat="45.204765" lon="6.449071"><ele>1327.7</ele><time>2025-07-13T08:36:37Z</time></trkpt>
<trkpt lat="45.204724" lon="6.448966"><ele>1333.5</ele><time>2025-07-13T08:36:50Z</time></trkpt>
<trkpt lat="45.204683" lon="6.448860"><ele>1339.3</ele><time>2025-07-13T08:37:03Z</time></trkpt>
<trkpt lat="45.204642" lon="6.448753"><ele>1345.1</ele><time>2025-07-13T08:37:16Z</time></trkpt>
<trkpt lat="45.204601" lon="6.448647"><ele>1350.9</ele><time>2025-07-13T08:37:29Z</time></trkpt>
<trkpt lat="45.204561" lon="6.448540"><ele>1356.6</ele><time>2025-07-13T08:37:42Z</time></trkpt>
<trkpt lat="45.204520" lon="6.448433"><ele>1362.4</ele><time>2025-07-13T08:37:55Z</time></trkpt>
<trkpt lat="45.204480" lon="6.448327"><ele>1368.1</ele><time>2025-07-13T08:38:08Z</time></trkpt>
<trkpt lat="45.204440" lon="6.448221"><ele>1373.9</ele><time>2025-07-13T08:38:21Z</time></trkpt>
<trkpt lat="45.204400" lon="6.448115"><ele>1379.6</ele><time>2025-07-13T08:38:34Z</time></trkpt>
<trkpt lat="45.204360" lon="6.448011"><ele>1385.3</ele><time>2025-07-13T08:38:47Z</time></trkpt>
<trkpt lat="45.204320" lon="6.447907"><ele>1391.1</ele><time>2025-07-13T08:39:00Z</time></trkpt>
<trkpt lat="45.204280" lon="6.447804"><ele>1396.8</ele><time>2025-07-13T08:39:13Z</time></trkpt>
<trkpt lat="45.204240" lon="6.447702"><ele>1402.5</ele><time>2025-07-13T08:39:26Z</time></trkpt>
<trkpt lat="45.204201" lon="6.447602"><ele>1408.2</ele><time>2025-07-13T08:39:39Z</time></trkpt>
<trkpt lat="45.204160" lon="6.447503"><ele>1413.9</ele><time>2025-07-13T08:39:52Z</time></trkpt>
<trkpt lat="45.204120" lon="6.447406"><ele>1419.6</ele><time>2025-07-13T08:40:05Z</time></trkpt>
<trkpt lat="45.204080" lon="6.447311"><ele>1425.3</ele><time>2025-07-13T08:40:18Z</time></trkpt>
<trkpt lat="45.204039" lon="6.447217"><ele>1430.9</ele><time>2025-07-13T08:40:31Z</time></trkpt>
<trkpt lat="45.203999" lon="6.447126"><ele>1436.6</ele><time>2025-07-13T08:40:44Z</time></trkpt>
<trkpt lat="45.203958" lon="6.447036"><ele>1442.3</ele><time>2025-07-13T08:40:57Z</time></trkpt>
<trkpt lat="45.203916" lon="6.446949"><ele>1448.0</ele><time>2025-07-13T08:41:10Z</time></trkpt>
<trkpt lat="45.203875" lon="6.446864"><ele>1453.6</ele><time>2025-07-13T08:41:23Z</time></trkpt>
<trkpt lat="45.203832" lon="6.446780"><ele>1459.3</ele><time>2025-07-13T08:41:36Z</time></trkpt>
<trkpt lat="45.203790" lon="6.446699"><ele>1465.0</ele><time>2025-07-13T08:41:49Z</time></trkpt>
<trkpt lat="45.203747" lon="6.446620"><ele>1470.7</ele><time>2025-07-13T08:42:02Z</time></trkpt>
<trkpt lat="45.203703" lon="6.446542"><ele>1476.3</ele><time>2025-07-13T08:42:15Z</time></trkpt>
<trkpt lat="45.203659" lon="6.446466"><ele>1482.0</ele><time>2025-07-13T08:42:28Z</time></trkpt>
<trkpt lat="45.203615" lon="6.446391"><ele>1487.7</ele><time>2025-07-13T08:42:41Z</time></trkpt>
<trkpt lat="45.203570" lon="6.446317"><ele>1493.3</ele><time>2025-07-13T08:42:54Z</time></trkpt>
<trkpt lat="45.203524" lon="6.446245"><ele>1499.0</ele><time>2025-07-13T08:43:07Z</time></trkpt>
<trkpt lat="45.203478" lon="6.446173"><ele>1504.7</ele><time>2025-07-13T08:43:20Z</time></trkpt>
<trkpt lat="45.203431" lon="6.446101"><ele>1510.4</ele><time>2025-07-13T08:43:33Z</time></trkpt>
<trkpt lat="45.203383" lon="6.446029"><ele>1516.1</ele><time>2025-07-13T08:43:46Z</time></trkpt>
<trkpt lat="45.203335" lon="6.445957"><ele>1521.8</ele><time>2025-07-13T08:43:59Z</time></trkpt>
<trkpt lat="45.203286" lon="6.445885"><ele>1527.5</ele><time>2025-07-13T08:44:12Z</time></trkpt>
<trkpt lat="45.203236" lon="6.445811"><ele>1533.2</ele><time>2025-07-13T08:44:25Z</time></trkpt>
<trkpt lat="45.203186" lon="6.445736"><ele>1538.9</ele><time>2025-07-13T08:44:38Z</time></trkpt>
<trkpt lat="45.203136" lon="6.445659"><ele>1544.6</ele><time>2025-07-13T08:44:51Z</time></trkpt>
<trkpt lat="45.203084" lon="6.445579"><ele>1550.3</ele><time>2025-07-13T08:45:04Z</time></trkpt>
<trkpt lat="45.203033" lon="6.445498"><ele>1556.1</ele><time>2025-07-13T08:45:17Z</time></trkpt>
<trkpt lat="45.202980" lon="6.445413"><ele>1561.8</ele><time>2025-07-13T08:45:30Z</time></trkpt>
<trkpt lat="45.202713" lon="6.445325"><ele>1560.7</ele><time>2025-07-13T08:45:43Z</time></trkpt>
<trkpt lat="45.202446" lon="6.445234"><ele>1559.6</ele><time>2025-07-13T08:45:56Z</time></trkpt>
<trkpt lat="45.202178" lon="6.445138"><ele>1558.4</ele><time>2025-07-13T08:46:09Z</time></trkpt>
<trkpt lat="45.201909" lon="6.445039"><ele>1557.3</ele><time>2025-07-13T08:46:22Z</time></trkpt>
<trkpt lat="45.201641" lon="6.444935"><ele>1556.2</ele><time>2025-07-13T08:46:35Z</time></trkpt>
<trkpt lat="45.201372" lon="6.444827"><ele>1555.2</ele><time>2025-07-13T08:46:48Z</time></trkpt>
<trkpt lat="45.201103" lon="6.444714"><ele>1554.1</ele><time>2025-07-13T08:47:01Z</time></trkpt>
<trkpt lat="45.200834" lon="6.444596"><ele>1553.0</ele><time>2025-07-13T08:47:14Z</time></trkpt>
<trkpt lat="45.200565" lon="6.444474"><ele>1552.0</ele><time>2025-07-13T08:47:27Z</time></trkpt>
<trkpt lat="45.200296" lon="6.444346"><ele>1550.9</ele><time>2025-07-13T08:47:40Z</time></trkpt>
<trkpt lat="45.200027" lon="6.444214"><ele>1549.9</ele><time>2025-07-13T08:47:53Z</time></trkpt>
<trkpt lat="45.199758" lon="6.444078"><ele>1548.9</ele><time>2025-07-13T08:48:06Z</time></trkpt>
<trkpt lat="45.199489" lon="6.443937"><ele>1547.9</ele><time>2025-07-13T08:48:19Z</time></trkpt>
<trkpt lat="45.199221" lon="6.443792"><ele>1546.9</ele><time>2025-07-13T08:48:32Z</time></trkpt>
<trkpt lat="45.198953" lon="6.443643"><ele>1545.9</ele><time>2025-07-13T08:48:45Z</time></trkpt>
<trkpt lat="45.198686" lon="6.443491"><ele>1544.9</ele><time>2025-07-13T08:48:58Z</time></trkpt>
<trkpt lat="45.198419" lon="6.443335"><ele>1544.0</ele><time>2025-07-13T08:49:11Z</time></trkpt>
<trkpt lat="45.198153" lon="6.443177"><ele>1543.0</ele><time>2025-07-13T08:49:24Z</time></trkpt>
<trkpt lat="45.197888" lon="6.443016"><ele>1542.1</ele><time>2025-07-13T08:49:37Z</time></trkpt>
<trkpt lat="45.197623" lon="6.442854"><ele>1541.2</ele><time>2025-07-13T08:49:50Z</time></trkpt>
<trkpt lat="45.197360" lon="6.442690"><ele>1540.3</ele><time>2025-07-13T08:50:03Z</time></trkpt>
<trkpt lat="45.197097" lon="6.442526"><ele>1539.4</ele><time>2025-07-13T08:50:16Z</time></trkpt>
<trkpt lat="45.196835" lon="6.442363"><ele>1538.5</ele><time>2025-07-13T08:50:29Z</time></trkpt>
<trkpt lat="45.196574" lon="6.442199"><ele>1537.6</ele><time>2025-07-13T08:50:42Z</time></trkpt>
<trkpt lat="45.196315" lon="6.442038"><ele>1536.8</ele><time>2025-07-13T08:50:55Z</time></trkpt>
<trkpt lat="45.196056" lon="6.441878"><ele>1535.9</ele><time>2025-07-13T08:51:08Z</time></trkpt>
<trkpt lat="45.195799" lon="6.441721"><ele>1535.1</ele><time>2025-07-13T08:51:21Z</time></trkpt>
<trkpt lat="45.195543" lon="6.441567"><ele>1534.3</ele><time>2025-07-13T08:51:34Z</time></trkpt>
<trkpt lat="45.195288" lon="6.441417"><ele>1533.4</ele><time>2025-07-13T08:51:47Z</time></trkpt>
<trkpt lat="45.195035" lon="6.441272"><ele>1532.6</ele><time>2025-07-13T08:52:00Z</time></trkpt>
<trkpt lat="45.194783" lon="6.441132"><ele>1531.9</ele><time>2025-07-13T08:52:13Z</time></trkpt>
<trkpt lat="45.194532" lon="6.440998"><ele>1531.1</ele><time>2025-07-13T08:52:26Z</time></trkpt>
<trkpt lat="45.194282" lon="6.440869"><ele>1530.3</ele><time>2025-07-13T08:52:39Z</time></trkpt>
<trkpt lat="45.194034" lon="6.440748"><ele>1529.5</ele><time>2025-07-13T08:52:52Z</time></trkpt>
<trkpt lat="45.193787" lon="6.440633"><ele>1528.8</ele><time>2025-07-13T08:53:05Z</time></trkpt>
<trkpt lat="45.193541" lon="6.440526"><ele>1528.0</ele><time>2025-07-13T08:53:18Z</time></trkpt>
<trkpt lat="45.193297" lon="6.440426"><ele>1527.3</ele><time>2025-07-13T08:53:31Z</time></trkpt>
<trkpt lat="45.193054" lon="6.440334"><ele>1526.6</ele><time>2025-07-13T08:53:44Z</time></trkpt>
<trkpt lat="45.192812" lon="6.440250"><ele>1525.8</ele><time>2025-07-13T08:53:57Z</time></trkpt>
<trkpt lat="45.192571" lon="6.440173"><ele>1525.1</ele><time>2025-07-13T08:54:10Z</time></trkpt>
<trkpt lat="45.192331" lon="6.440105"><ele>1524.4</ele><time>2025-07-13T08:54:23Z</time></trkpt>
<trkpt lat="45.192092" lon="6.440044"><ele>1523.7</ele><time>2025-07-13T08:54:36Z</time></trkpt>
<trkpt lat="45.191854" lon="6.439991"><ele>1523.0</ele><time>2025-07-13T08:54:49Z</time></trkpt>
<trkpt lat="45.191617" lon="6.439946"><ele>1522.3</ele><time>2025-07-13T08:55:02Z</time></trkpt>
<trkpt lat="45.191380" lon="6.439907"><ele>1521.7</ele><time>2025-07-13T08:55:15Z</time></trkpt>
<trkpt lat="45.191145" lon="6.439875"><ele>1521.0</ele><time>2025-07-13T08:55:28Z</time></trkpt>
<trkpt lat="45.190909" lon="6.439848"><ele>1520.3</ele><time>2025-07-13T08:55:41Z</time></trkpt>
<trkpt lat="45.190675" lon="6.439827"><ele>1519.6</ele><time>2025-07-13T08:55:54Z</time></trkpt>
<trkpt lat="45.190440" lon="6.439811"><ele>1518.9</ele><time>2025-07-13T08:56:07Z</time></trkpt>
<trkpt lat="45.190206" lon="6.439799"><ele>1518.3</ele><time>2025-07-13T08:56:20Z</time></trkpt>
<trkpt lat="45.189972" lon="6.439791"><ele>1517.6</ele><time>2025-07-13T08:56:33Z</time></trkpt>
<trkpt lat="45.189738" lon="6.439785"><ele>1516.9</ele><time>2025-07-13T08:56:46Z</time></trkpt>
<trkpt lat="45.189504" lon="6.439780"><ele>1516.3</ele><time>2025-07-13T08:56:59Z</time></trkpt>
<trkpt lat="45.189270" lon="6.439777"><ele>1515.6</ele><time>2025-07-13T08:57:12Z</time></trkpt>
<trkpt lat="45.189035" lon="6.439774"><ele>1514.9</ele><time>2025-07-13T08:57:25Z</time></trkpt>
<trkpt lat="45.188800" lon="6.439769"><ele>1514.2</ele><time>2025-07-13T08:57:38Z</time></trkpt>
<trkpt lat="45.188565" lon="6.439763"><ele>1513.6</ele><time>2025-07-13T08:57:51Z</time></trkpt>
<trkpt lat="45.188329" lon="6.439755"><ele>1512.9</ele><time>2025-07-13T08:58:04Z</time></trkpt>
<trkpt lat="45.188092" lon="6.439743"><ele>1512.2</ele><time>2025-07-13T08:58:17Z</time></trkpt>
<trkpt lat="45.187854" lon="6.439726"><ele>1511.5</ele><time>2025-07-13T08:58:30Z</time></trkpt>
<trkpt lat="45.187615" lon="6.439704"><ele>1510.8</ele><time>2025-07-13T08:58:43Z</time></trkpt>
<trkpt lat="45.187375" lon="6.439676"><ele>1510.1</ele><time>2025-07-13T08:58:56Z</time></trkpt>
<trkpt lat="45.187134" lon="6.439642"><ele>1509.4</ele><time>2025-07-13T08:59:09Z</time></trkpt>
<trkpt lat="45.186891" lon="6.439600"><ele>1508.7</ele><time>2025-07-13T08:59:22Z</time></trkpt>
<trkpt lat="45.186647" lon="6.439550"><ele>1508.0</ele><time>2025-07-13T08:59:35Z</time></trkpt>
<trkpt lat="45.186402" lon="6.439492"><ele>1507.3</ele><time>2025-07-13T08:59:48Z</time></trkpt>
<trkpt lat="45.186155" lon="6.439425"><ele>1506.6</ele><time>2025-07-13T09:00:01Z</time></trkpt>
<trkpt lat="45.185907" lon="6.439348"><ele>1505.8</ele><time>2025-07-13T09:00:14Z</time></trkpt>
<trkpt lat="45.185657" lon="6.439262"><ele>1505.1</ele><time>2025-07-13T09:00:27Z</time></trkpt>
<trkpt lat="45.185406" lon="6.439166"><ele>1504.3</ele><time>2025-07-13T09:00:40Z</time></trkpt>
<trkpt lat="45.185109" lon="6.439024"><ele>1503.5</ele><time>2025-07-13T09:00:53Z</time></trkpt>
<trkpt lat="45.184811" lon="6.438872"><ele>1502.7</ele><time>2025-07-13T09:01:06Z</time></trkpt>
<trkpt lat="45.184512" lon="6.438711"><ele>1501.9</ele><time>2025-07-13T09:01:19Z</time></trkpt>
<trkpt lat="45.184210" lon="6.438539"><ele>1501.0</ele><time>2025-07-13T09:01:32Z</time></trkpt>
<trkpt lat="45.183907" lon="6.438359"><ele>1500.2</ele><time>2025-07-13T09:01:45Z</time></trkpt>
<trkpt lat="45.183602" lon="6.438169"><ele>1499.3</ele><time>2025-07-13T09:01:58Z</time></trkpt>
<trkpt lat="45.183295" lon="6.437970"><ele>1498.4</ele><time>2025-07-13T09:02:11Z</time></trkpt>
<trkpt lat="45.182987" lon="6.437764"><ele>1497.5</ele><time>2025-07-13T09:02:24Z</time></trkpt>
<trkpt lat="45.182676" lon="6.437550"><ele>1496.6</ele><time>2025-07-13T09:02:37Z</time></trkpt>
<trkpt lat="45.182364" lon="6.437329"><ele>1495.7</ele><time>2025-07-13T09:02:50Z</time></trkpt>
<trkpt lat="45.182051" lon="6.437102"><ele>1494.8</ele><time>2025-07-13T09:03:03Z</time></trkpt>
<trkpt lat="45.181736" lon="6.436870"><ele>1493.9</ele><time>2025-07-13T09:03:16Z</time></trkpt>
<trkpt lat="45.181419" lon="6.436633"><ele>1492.9</ele><time>2025-07-13T09:03:29Z</time></trkpt>
<trkpt lat="45.181102" lon="6.436393"><ele>1492.0</ele><time>2025-07-13T09:03:42Z</time></trkpt>
<trkpt lat="45.180782" lon="6.436151"><ele>1491.0</ele><time>2025-07-13T09:03:55Z</time></trkpt>
<trkpt lat="45.180462" lon="6.435907"><ele>1490.0</ele><time>2025-07-13T09:04:08Z</time></trkpt>
<trkpt lat="45.180141" lon="6.435662"><ele>1489.0</ele><time>2025-07-13T09:04:21Z</time></trkpt>
<trkpt lat="45.179818" lon="6.435418"><ele>1488.0</ele><time>2025-07-13T09:04:34Z</time></trkpt>
<trkpt lat="45.179495" lon="6.435175"><ele>1487.0</ele><time>2025-07-13T09:04:47Z</time></trkpt>
<trkpt lat="45.179171" lon="6.434934"><ele>1485.9</ele><time>2025-07-13T09:05:00Z</time></trkpt>
<trkpt lat="45.178846" lon="6.434697"><ele>1484.9</ele><time>2025-07-13T09:05:13Z</time></trkpt>
<trkpt lat="45.178520" lon="6.434463"><ele>1483.8</ele><time>2025-07-13T09:05:26Z</time></trkpt>
<trkpt lat="45.178194" lon="6.434235"><ele>1482.8</ele><time>2025-07-13T09:05:39Z</time></trkpt>
<trkpt lat="45.177868" lon="6.434013"><ele>1481.7</ele><time>2025-07-13T09:05:52Z</time></trkpt>
<trkpt lat="45.177542" lon="6.433797"><ele>1480.6</ele><time>2025-07-13T09:06:05Z</time></trkpt>
<trkpt lat="45.177216" lon="6.433588"><ele>1479.5</ele><time>2025-07-13T09:06:18Z</time></trkpt>
<trkpt lat="45.176889" lon="6.433388"><ele>1478.4</ele><time>2025-07-13T09:06:31Z</time></trkpt>
<trkpt lat="45.176563" lon="6.433195"><ele>1477.2</ele><time>2025-07-13T09:06:44Z</time></trkpt>
<trkpt lat="45.176237" lon="6.433012"><ele>1476.1</ele><time>2025-07-13T09:06:57Z</time></trkpt>
<trkpt lat="45.175912" lon="6.432838"><ele>1474.9</ele><time>2025-07-13T09:07:10Z</time></trkpt>
<trkpt lat="45.175587" lon="6.432674"><ele>1473.8</ele><time>2025-07-13T09:07:23Z</time></trkpt>
<trkpt lat="45.175263" lon="6.432519"><ele>1472.6</ele><time>2025-07-13T09:07:36Z</time></trkpt>
<trkpt lat="45.174940" lon="6.432374"><ele>1471.4</ele><time>2025-07-13T09:07:49Z</time></trkpt>
<trkpt lat="45.174618" lon="6.432239"><ele>1470.2</ele><time>2025-07-13T09:08:02Z</time></trkpt>
<trkpt lat="45.174296" lon="6.432113"><ele>1469.0</ele><time>2025-07-13T09:08:15Z</time></trkpt>
<trkpt lat="45.173976" lon="6.431998"><ele>1467.8</ele><time>2025-07-13T09:08:28Z</time></trkpt>
<trkpt lat="45.173657" lon="6.431891"><ele>1466.6</ele><time>2025-07-13T09:08:41Z</time></trkpt>
<trkpt lat="45.173339" lon="6.431794"><ele>1465.4</ele><time>2025-07-13T09:08:54Z</time></trkpt>
<trkpt lat="45.173023" lon="6.431704"><ele>1464.2</ele><time>2025-07-13T09:09:07Z</time></trkpt>
<trkpt lat="45.172707" lon="6.431623"><ele>1462.9</ele><time>2025-07-13T09:09:20Z</time></trkpt>
<trkpt lat="45.172394" lon="6.431550"><ele>1461.7</ele><time>2025-07-13T09:09:33Z</time></trkpt>
<trkpt lat="45.172082" lon="6.431483"><ele>1460.5</ele><time>2025-07-13T09:09:46Z</time></trkpt>
<trkpt lat="45.171771" lon="6.431422"><ele>1459.2</ele><time>2025-07-13T09:09:59Z</time></trkpt>
<trkpt lat="45.171462" lon="6.431366"><ele>1457.9</ele><time>2025-07-13T09:10:12Z</time></trkpt>
<trkpt lat="45.171155" lon="6.431315"><ele>1456.7</ele><time>2025-07-13T09:10:25Z</time></trkpt>
<trkpt lat="45.170849" lon="6.431267"><ele>1455.4</ele><time>2025-07-13T09:10:38Z</time></trkpt>
<trkpt lat="45.170545" lon="6.431222"><ele>1454.2</ele><time>2025-07-13T09:10:51Z</time></trkpt>
<trkpt lat="45.170242" lon="6.431179"><ele>1452.9</ele><time>2025-07-13T09:11:04Z</time></trkpt>
<trkpt lat="45.169941" lon="6.431137"><ele>1451.6</ele><time>2025-07-13T09:11:17Z</time></trkpt>
<trkpt lat="45.169642" lon="6.431096"><ele>1450.3</ele><time>2025-07-13T09:11:30Z</time></trkpt>
<trkpt lat="45.169344" lon="6.431053"><ele>1449.1</ele><time>2025-07-13T09:11:43Z</time></trkpt>
<trkpt lat="45.169048" lon="6.431009"><ele>1447.8</ele><time>2025-07-13T09:11:56Z</time></trkpt>
<trkpt lat="45.168753" lon="6.430963"><ele>1446.5</ele><time>2025-07-13T09:12:09Z</time></trkpt>
<trkpt lat="45.168459" lon="6.430914"><ele>1445.3</ele><time>2025-07-13T09:12:22Z</time></trkpt>
<trkpt lat="45.168167" lon="6.430860"><ele>1444.0</ele><time>2025-07-13T09:12:35Z</time></trkpt>
<trkpt lat="45.167877" lon="6.430803"><ele>1442.7</ele><time>2025-07-13T09:12:48Z</time></trkpt>
<trkpt lat="45.167587" lon="6.430740"><ele>1441.5</ele><time>2025-07-13T09:13:01Z</time></trkpt>
<trkpt lat="45.167299" lon="6.430671"><ele>1440.2</ele><time>2025-07-13T09:13:14Z</time></trkpt>
<trkpt lat="45.167012" lon="6.430597"><ele>1438.9</ele><time>2025-07-13T09:13:27Z</time></trkpt>
<trkpt lat="45.166725" lon="6.430515"><ele>1437.7</ele><time>2025-07-13T09:13:40Z</time></trkpt>
<trkpt lat="45.166440" lon="6.430427"><ele>1436.4</ele><time>2025-07-13T09:13:53Z</time></trkpt>
<trkpt lat="45.166155" lon="6.430331"><ele>1435.2</ele><time>2025-07-13T09:14:06Z</time></trkpt>
<trkpt lat="45.165872" lon="6.430228"><ele>1434.0</ele><time>2025-07-13T09:14:19Z</time></trkpt>
<trkpt lat="45.165588" lon="6.430117"><ele>1432.7</ele><time>2025-07-13T09:14:32Z</time></trkpt>
<trkpt lat="45.165305" lon="6.429999"><ele>1431.5</ele><time>2025-07-13T09:14:45Z</time></trkpt>
<trkpt lat="45.165023" lon="6.429873"><ele>1430.3</ele><time>2025-07-13T09:14:58Z</time></trkpt>
<trkpt lat="45.164741" lon="6.429740"><ele>1429.1</ele><time>2025-07-13T09:15:11Z</time></trkpt>
<trkpt lat="45.164459" lon="6.429599"><ele>1427.9</ele><time>2025-07-13T09:15:24Z</time></trkpt>
<trkpt lat="45.164178" lon="6.429452"><ele>1426.7</ele><time>2025-07-13T09:15:37Z</time></trkpt>
<trkpt lat="45.164000" lon="6.428500"><ele>1430.0</ele><time>2025-07-13T09:15:50Z</time></trkpt>
</trkseg></trk></gpx>